; Sample spiral vase for Local 3D Viewer
G21 ; mm
G90 ; absolute
M82 ; absolute E
G28
G92 E0
G0 X110 Y100 Z0.2 F6000
G1 X114.872 Y101.958 Z0.20 E0.06480 F1800
G1 X114.489 Y103.882 Z0.20 E0.12959 F1800
G1 X113.858 Y105.740 Z0.20 E0.19439 F1800
G1 X112.990 Y107.500 Z0.20 E0.25918 F1800
G1 X111.900 Y109.131 Z0.20 E0.32398 F1800
G1 X110.607 Y110.607 Z0.20 E0.38877 F1800
G1 X109.131 Y111.900 Z0.20 E0.45357 F1800
G1 X107.500 Y112.990 Z0.20 E0.51836 F1800
G1 X105.740 Y113.858 Z0.20 E0.58316 F1800
G1 X103.882 Y114.489 Z0.20 E0.64795 F1800
G1 X101.958 Y114.872 Z0.20 E0.71275 F1800
G1 X100.000 Y115.000 Z0.20 E0.77754 F1800
G1 X98.042 Y114.872 Z0.20 E0.84234 F1800
G1 X96.118 Y114.489 Z0.20 E0.90713 F1800
G1 X94.260 Y113.858 Z0.20 E0.97193 F1800
G1 X92.500 Y112.990 Z0.20 E1.03673 F1800
G1 X90.869 Y111.900 Z0.20 E1.10152 F1800
G1 X89.393 Y110.607 Z0.20 E1.16632 F1800
G1 X88.100 Y109.131 Z0.20 E1.23111 F1800
G1 X87.010 Y107.500 Z0.20 E1.29591 F1800
G1 X86.142 Y105.740 Z0.20 E1.36070 F1800
G1 X85.511 Y103.882 Z0.20 E1.42550 F1800
G1 X85.128 Y101.958 Z0.20 E1.49029 F1800
G1 X85.000 Y100.000 Z0.20 E1.55509 F1800
G1 X85.128 Y98.042 Z0.20 E1.61988 F1800
G1 X85.511 Y96.118 Z0.20 E1.68468 F1800
G1 X86.142 Y94.260 Z0.20 E1.74947 F1800
G1 X87.010 Y92.500 Z0.20 E1.81427 F1800
G1 X88.100 Y90.869 Z0.20 E1.87907 F1800
G1 X89.393 Y89.393 Z0.20 E1.94386 F1800
G1 X90.869 Y88.100 Z0.20 E2.00866 F1800
G1 X92.500 Y87.010 Z0.20 E2.07345 F1800
G1 X94.260 Y86.142 Z0.20 E2.13825 F1800
G1 X96.118 Y85.511 Z0.20 E2.20304 F1800
G1 X98.042 Y85.128 Z0.20 E2.26784 F1800
G1 X100.000 Y85.000 Z0.20 E2.33263 F1800
G1 X101.958 Y85.128 Z0.20 E2.39743 F1800
G1 X103.882 Y85.511 Z0.20 E2.46222 F1800
G1 X105.740 Y86.142 Z0.20 E2.52702 F1800
G1 X107.500 Y87.010 Z0.20 E2.59181 F1800
G1 X109.131 Y88.100 Z0.20 E2.65661 F1800
G1 X110.607 Y89.393 Z0.20 E2.72140 F1800
G1 X111.900 Y90.869 Z0.20 E2.78620 F1800
G1 X112.990 Y92.500 Z0.20 E2.85100 F1800
G1 X113.858 Y94.260 Z0.20 E2.91579 F1800
G1 X114.489 Y96.118 Z0.20 E2.98059 F1800
G1 X114.872 Y98.042 Z0.20 E3.04538 F1800
G1 X115.000 Y100.000 Z0.20 E3.11018 F1800
G1 X115.201 Y102.001 Z0.40 E3.17641 F1800
G1 X114.809 Y103.968 Z0.40 E3.24263 F1800
G1 X114.165 Y105.867 Z0.40 E3.30886 F1800
G1 X113.278 Y107.666 Z0.40 E3.37509 F1800
G1 X112.164 Y109.333 Z0.40 E3.44132 F1800
G1 X110.841 Y110.841 Z0.40 E3.50755 F1800
G1 X109.333 Y112.164 Z0.40 E3.57378 F1800
G1 X107.666 Y113.278 Z0.40 E3.64001 F1800
G1 X105.867 Y114.165 Z0.40 E3.70623 F1800
G1 X103.968 Y114.809 Z0.40 E3.77246 F1800
G1 X102.001 Y115.201 Z0.40 E3.83869 F1800
G1 X100.000 Y115.332 Z0.40 E3.90492 F1800
G1 X97.999 Y115.201 Z0.40 E3.97115 F1800
G1 X96.032 Y114.809 Z0.40 E4.03738 F1800
G1 X94.133 Y114.165 Z0.40 E4.10361 F1800
G1 X92.334 Y113.278 Z0.40 E4.16983 F1800
G1 X90.667 Y112.164 Z0.40 E4.23606 F1800
G1 X89.159 Y110.841 Z0.40 E4.30229 F1800
G1 X87.836 Y109.333 Z0.40 E4.36852 F1800
G1 X86.722 Y107.666 Z0.40 E4.43475 F1800
G1 X85.835 Y105.867 Z0.40 E4.50098 F1800
G1 X85.191 Y103.968 Z0.40 E4.56721 F1800
G1 X84.799 Y102.001 Z0.40 E4.63343 F1800
G1 X84.668 Y100.000 Z0.40 E4.69966 F1800
G1 X84.799 Y97.999 Z0.40 E4.76589 F1800
G1 X85.191 Y96.032 Z0.40 E4.83212 F1800
G1 X85.835 Y94.133 Z0.40 E4.89835 F1800
G1 X86.722 Y92.334 Z0.40 E4.96458 F1800
G1 X87.836 Y90.667 Z0.40 E5.03081 F1800
G1 X89.159 Y89.159 Z0.40 E5.09703 F1800
G1 X90.667 Y87.836 Z0.40 E5.16326 F1800
G1 X92.334 Y86.722 Z0.40 E5.22949 F1800
G1 X94.133 Y85.835 Z0.40 E5.29572 F1800
G1 X96.032 Y85.191 Z0.40 E5.36195 F1800
G1 X97.999 Y84.799 Z0.40 E5.42818 F1800
G1 X100.000 Y84.668 Z0.40 E5.49441 F1800
G1 X102.001 Y84.799 Z0.40 E5.56063 F1800
G1 X103.968 Y85.191 Z0.40 E5.62686 F1800
G1 X105.867 Y85.835 Z0.40 E5.69309 F1800
G1 X107.666 Y86.722 Z0.40 E5.75932 F1800
G1 X109.333 Y87.836 Z0.40 E5.82555 F1800
G1 X110.841 Y89.159 Z0.40 E5.89178 F1800
G1 X112.164 Y90.667 Z0.40 E5.95801 F1800
G1 X113.278 Y92.334 Z0.40 E6.02423 F1800
G1 X114.165 Y94.133 Z0.40 E6.09046 F1800
G1 X114.809 Y96.032 Z0.40 E6.15669 F1800
G1 X115.201 Y97.999 Z0.40 E6.22292 F1800
G1 X115.332 Y100.000 Z0.40 E6.28915 F1800
G1 X115.520 Y102.043 Z0.60 E6.35677 F1800
G1 X115.121 Y104.052 Z0.60 E6.42439 F1800
G1 X114.463 Y105.991 Z0.60 E6.49202 F1800
G1 X113.557 Y107.827 Z0.60 E6.55964 F1800
G1 X112.419 Y109.530 Z0.60 E6.62726 F1800
G1 X111.069 Y111.069 Z0.60 E6.69488 F1800
G1 X109.530 Y112.419 Z0.60 E6.76250 F1800
G1 X107.827 Y113.557 Z0.60 E6.83013 F1800
G1 X105.991 Y114.463 Z0.60 E6.89775 F1800
G1 X104.052 Y115.121 Z0.60 E6.96537 F1800
G1 X102.043 Y115.520 Z0.60 E7.03299 F1800
G1 X100.000 Y115.654 Z0.60 E7.10061 F1800
G1 X97.957 Y115.520 Z0.60 E7.16824 F1800
G1 X95.948 Y115.121 Z0.60 E7.23586 F1800
G1 X94.009 Y114.463 Z0.60 E7.30348 F1800
G1 X92.173 Y113.557 Z0.60 E7.37110 F1800
G1 X90.470 Y112.419 Z0.60 E7.43872 F1800
G1 X88.931 Y111.069 Z0.60 E7.50635 F1800
G1 X87.581 Y109.530 Z0.60 E7.57397 F1800
G1 X86.443 Y107.827 Z0.60 E7.64159 F1800
G1 X85.537 Y105.991 Z0.60 E7.70921 F1800
G1 X84.879 Y104.052 Z0.60 E7.77684 F1800
G1 X84.480 Y102.043 Z0.60 E7.84446 F1800
G1 X84.346 Y100.000 Z0.60 E7.91208 F1800
G1 X84.480 Y97.957 Z0.60 E7.97970 F1800
G1 X84.879 Y95.948 Z0.60 E8.04732 F1800
G1 X85.537 Y94.009 Z0.60 E8.11495 F1800
G1 X86.443 Y92.173 Z0.60 E8.18257 F1800
G1 X87.581 Y90.470 Z0.60 E8.25019 F1800
G1 X88.931 Y88.931 Z0.60 E8.31781 F1800
G1 X90.470 Y87.581 Z0.60 E8.38543 F1800
G1 X92.173 Y86.443 Z0.60 E8.45306 F1800
G1 X94.009 Y85.537 Z0.60 E8.52068 F1800
G1 X95.948 Y84.879 Z0.60 E8.58830 F1800
G1 X97.957 Y84.480 Z0.60 E8.65592 F1800
G1 X100.000 Y84.346 Z0.60 E8.72354 F1800
G1 X102.043 Y84.480 Z0.60 E8.79117 F1800
G1 X104.052 Y84.879 Z0.60 E8.85879 F1800
G1 X105.991 Y85.537 Z0.60 E8.92641 F1800
G1 X107.827 Y86.443 Z0.60 E8.99403 F1800
G1 X109.530 Y87.581 Z0.60 E9.06166 F1800
G1 X111.069 Y88.931 Z0.60 E9.12928 F1800
G1 X112.419 Y90.470 Z0.60 E9.19690 F1800
G1 X113.557 Y92.173 Z0.60 E9.26452 F1800
G1 X114.463 Y94.009 Z0.60 E9.33214 F1800
G1 X115.121 Y95.948 Z0.60 E9.39977 F1800
G1 X115.520 Y97.957 Z0.60 E9.46739 F1800
G1 X115.654 Y100.000 Z0.60 E9.53501 F1800
G1 X115.822 Y102.083 Z0.80 E9.60395 F1800
G1 X115.415 Y104.130 Z0.80 E9.67288 F1800
G1 X114.744 Y106.107 Z0.80 E9.74182 F1800
G1 X113.821 Y107.979 Z0.80 E9.81076 F1800
G1 X112.661 Y109.715 Z0.80 E9.87970 F1800
G1 X111.285 Y111.285 Z0.80 E9.94863 F1800
G1 X109.715 Y112.661 Z0.80 E10.01757 F1800
G1 X107.979 Y113.821 Z0.80 E10.08651 F1800
G1 X106.107 Y114.744 Z0.80 E10.15545 F1800
G1 X104.130 Y115.415 Z0.80 E10.22438 F1800
G1 X102.083 Y115.822 Z0.80 E10.29332 F1800
G1 X100.000 Y115.959 Z0.80 E10.36226 F1800
G1 X97.917 Y115.822 Z0.80 E10.43119 F1800
G1 X95.870 Y115.415 Z0.80 E10.50013 F1800
G1 X93.893 Y114.744 Z0.80 E10.56907 F1800
G1 X92.021 Y113.821 Z0.80 E10.63801 F1800
G1 X90.285 Y112.661 Z0.80 E10.70694 F1800
G1 X88.715 Y111.285 Z0.80 E10.77588 F1800
G1 X87.339 Y109.715 Z0.80 E10.84482 F1800
G1 X86.179 Y107.979 Z0.80 E10.91376 F1800
G1 X85.256 Y106.107 Z0.80 E10.98269 F1800
G1 X84.585 Y104.130 Z0.80 E11.05163 F1800
G1 X84.178 Y102.083 Z0.80 E11.12057 F1800
G1 X84.041 Y100.000 Z0.80 E11.18951 F1800
G1 X84.178 Y97.917 Z0.80 E11.25844 F1800
G1 X84.585 Y95.870 Z0.80 E11.32738 F1800
G1 X85.256 Y93.893 Z0.80 E11.39632 F1800
G1 X86.179 Y92.021 Z0.80 E11.46525 F1800
G1 X87.339 Y90.285 Z0.80 E11.53419 F1800
G1 X88.715 Y88.715 Z0.80 E11.60313 F1800
G1 X90.285 Y87.339 Z0.80 E11.67207 F1800
G1 X92.021 Y86.179 Z0.80 E11.74100 F1800
G1 X93.893 Y85.256 Z0.80 E11.80994 F1800
G1 X95.870 Y84.585 Z0.80 E11.87888 F1800
G1 X97.917 Y84.178 Z0.80 E11.94782 F1800
G1 X100.000 Y84.041 Z0.80 E12.01675 F1800
G1 X102.083 Y84.178 Z0.80 E12.08569 F1800
G1 X104.130 Y84.585 Z0.80 E12.15463 F1800
G1 X106.107 Y85.256 Z0.80 E12.22356 F1800
G1 X107.979 Y86.179 Z0.80 E12.29250 F1800
G1 X109.715 Y87.339 Z0.80 E12.36144 F1800
G1 X111.285 Y88.715 Z0.80 E12.43038 F1800
G1 X112.661 Y90.285 Z0.80 E12.49931 F1800
G1 X113.821 Y92.021 Z0.80 E12.56825 F1800
G1 X114.744 Y93.893 Z0.80 E12.63719 F1800
G1 X115.415 Y95.870 Z0.80 E12.70613 F1800
G1 X115.822 Y97.917 Z0.80 E12.77506 F1800
G1 X115.959 Y100.000 Z0.80 E12.84400 F1800
G1 X116.098 Y102.119 Z1.00 E12.91414 F1800
G1 X115.683 Y104.202 Z1.00 E12.98428 F1800
G1 X115.001 Y106.214 Z1.00 E13.05441 F1800
G1 X114.061 Y108.118 Z1.00 E13.12455 F1800
G1 X112.881 Y109.884 Z1.00 E13.19469 F1800
G1 X111.481 Y111.481 Z1.00 E13.26483 F1800
G1 X109.884 Y112.881 Z1.00 E13.33496 F1800
G1 X108.118 Y114.061 Z1.00 E13.40510 F1800
G1 X106.214 Y115.001 Z1.00 E13.47524 F1800
G1 X104.202 Y115.683 Z1.00 E13.54538 F1800
G1 X102.119 Y116.098 Z1.00 E13.61551 F1800
G1 X100.000 Y116.237 Z1.00 E13.68565 F1800
G1 X97.881 Y116.098 Z1.00 E13.75579 F1800
G1 X95.798 Y115.683 Z1.00 E13.82593 F1800
G1 X93.786 Y115.001 Z1.00 E13.89607 F1800
G1 X91.882 Y114.061 Z1.00 E13.96620 F1800
G1 X90.116 Y112.881 Z1.00 E14.03634 F1800
G1 X88.519 Y111.481 Z1.00 E14.10648 F1800
G1 X87.119 Y109.884 Z1.00 E14.17662 F1800
G1 X85.939 Y108.118 Z1.00 E14.24675 F1800
G1 X84.999 Y106.214 Z1.00 E14.31689 F1800
G1 X84.317 Y104.202 Z1.00 E14.38703 F1800
G1 X83.902 Y102.119 Z1.00 E14.45717 F1800
G1 X83.763 Y100.000 Z1.00 E14.52730 F1800
G1 X83.902 Y97.881 Z1.00 E14.59744 F1800
G1 X84.317 Y95.798 Z1.00 E14.66758 F1800
G1 X84.999 Y93.786 Z1.00 E14.73772 F1800
G1 X85.939 Y91.882 Z1.00 E14.80785 F1800
G1 X87.119 Y90.116 Z1.00 E14.87799 F1800
G1 X88.519 Y88.519 Z1.00 E14.94813 F1800
G1 X90.116 Y87.119 Z1.00 E15.01827 F1800
G1 X91.882 Y85.939 Z1.00 E15.08841 F1800
G1 X93.786 Y84.999 Z1.00 E15.15854 F1800
G1 X95.798 Y84.317 Z1.00 E15.22868 F1800
G1 X97.881 Y83.902 Z1.00 E15.29882 F1800
G1 X100.000 Y83.763 Z1.00 E15.36896 F1800
G1 X102.119 Y83.902 Z1.00 E15.43909 F1800
G1 X104.202 Y84.317 Z1.00 E15.50923 F1800
G1 X106.214 Y84.999 Z1.00 E15.57937 F1800
G1 X108.118 Y85.939 Z1.00 E15.64951 F1800
G1 X109.884 Y87.119 Z1.00 E15.71964 F1800
G1 X111.481 Y88.519 Z1.00 E15.78978 F1800
G1 X112.881 Y90.116 Z1.00 E15.85992 F1800
G1 X114.061 Y91.882 Z1.00 E15.93006 F1800
G1 X115.001 Y93.786 Z1.00 E16.00020 F1800
G1 X115.683 Y95.798 Z1.00 E16.07033 F1800
G1 X116.098 Y97.881 Z1.00 E16.14047 F1800
G1 X116.237 Y100.000 Z1.00 E16.21061 F1800
G1 X116.339 Y102.151 Z1.20 E16.28180 F1800
G1 X115.919 Y104.265 Z1.20 E16.35299 F1800
G1 X115.226 Y106.307 Z1.20 E16.42418 F1800
G1 X114.272 Y108.240 Z1.20 E16.49537 F1800
G1 X113.075 Y110.033 Z1.20 E16.56656 F1800
G1 X111.653 Y111.653 Z1.20 E16.63775 F1800
G1 X110.033 Y113.075 Z1.20 E16.70894 F1800
G1 X108.240 Y114.272 Z1.20 E16.78013 F1800
G1 X106.307 Y115.226 Z1.20 E16.85132 F1800
G1 X104.265 Y115.919 Z1.20 E16.92251 F1800
G1 X102.151 Y116.339 Z1.20 E16.99370 F1800
G1 X100.000 Y116.480 Z1.20 E17.06489 F1800
G1 X97.849 Y116.339 Z1.20 E17.13608 F1800
G1 X95.735 Y115.919 Z1.20 E17.20727 F1800
G1 X93.693 Y115.226 Z1.20 E17.27846 F1800
G1 X91.760 Y114.272 Z1.20 E17.34965 F1800
G1 X89.967 Y113.075 Z1.20 E17.42084 F1800
G1 X88.347 Y111.653 Z1.20 E17.49203 F1800
G1 X86.925 Y110.033 Z1.20 E17.56322 F1800
G1 X85.728 Y108.240 Z1.20 E17.63441 F1800
G1 X84.774 Y106.307 Z1.20 E17.70560 F1800
G1 X84.081 Y104.265 Z1.20 E17.77679 F1800
G1 X83.661 Y102.151 Z1.20 E17.84798 F1800
G1 X83.520 Y100.000 Z1.20 E17.91917 F1800
G1 X83.661 Y97.849 Z1.20 E17.99036 F1800
G1 X84.081 Y95.735 Z1.20 E18.06155 F1800
G1 X84.774 Y93.693 Z1.20 E18.13274 F1800
G1 X85.728 Y91.760 Z1.20 E18.20393 F1800
G1 X86.925 Y89.967 Z1.20 E18.27512 F1800
G1 X88.347 Y88.347 Z1.20 E18.34631 F1800
G1 X89.967 Y86.925 Z1.20 E18.41750 F1800
G1 X91.760 Y85.728 Z1.20 E18.48869 F1800
G1 X93.693 Y84.774 Z1.20 E18.55988 F1800
G1 X95.735 Y84.081 Z1.20 E18.63107 F1800
G1 X97.849 Y83.661 Z1.20 E18.70226 F1800
G1 X100.000 Y83.520 Z1.20 E18.77345 F1800
G1 X102.151 Y83.661 Z1.20 E18.84464 F1800
G1 X104.265 Y84.081 Z1.20 E18.91583 F1800
G1 X106.307 Y84.774 Z1.20 E18.98702 F1800
G1 X108.240 Y85.728 Z1.20 E19.05821 F1800
G1 X110.033 Y86.925 Z1.20 E19.12940 F1800
G1 X111.653 Y88.347 Z1.20 E19.20059 F1800
G1 X113.075 Y89.967 Z1.20 E19.27178 F1800
G1 X114.272 Y91.760 Z1.20 E19.34297 F1800
G1 X115.226 Y93.693 Z1.20 E19.41416 F1800
G1 X115.919 Y95.735 Z1.20 E19.48535 F1800
G1 X116.339 Y97.849 Z1.20 E19.55654 F1800
G1 X116.480 Y100.000 Z1.20 E19.62773 F1800
G1 X116.540 Y102.178 Z1.40 E19.69979 F1800
G1 X116.114 Y104.318 Z1.40 E19.77186 F1800
G1 X115.413 Y106.384 Z1.40 E19.84392 F1800
G1 X114.448 Y108.341 Z1.40 E19.91599 F1800
G1 X113.235 Y110.156 Z1.40 E19.98806 F1800
G1 X111.797 Y111.797 Z1.40 E20.06012 F1800
G1 X110.156 Y113.235 Z1.40 E20.13219 F1800
G1 X108.341 Y114.448 Z1.40 E20.20425 F1800
G1 X106.384 Y115.413 Z1.40 E20.27632 F1800
G1 X104.318 Y116.114 Z1.40 E20.34838 F1800
G1 X102.178 Y116.540 Z1.40 E20.42045 F1800
G1 X100.000 Y116.683 Z1.40 E20.49251 F1800
G1 X97.822 Y116.540 Z1.40 E20.56458 F1800
G1 X95.682 Y116.114 Z1.40 E20.63664 F1800
G1 X93.616 Y115.413 Z1.40 E20.70871 F1800
G1 X91.659 Y114.448 Z1.40 E20.78077 F1800
G1 X89.844 Y113.235 Z1.40 E20.85284 F1800
G1 X88.203 Y111.797 Z1.40 E20.92490 F1800
G1 X86.765 Y110.156 Z1.40 E20.99697 F1800
G1 X85.552 Y108.341 Z1.40 E21.06903 F1800
G1 X84.587 Y106.384 Z1.40 E21.14110 F1800
G1 X83.886 Y104.318 Z1.40 E21.21316 F1800
G1 X83.460 Y102.178 Z1.40 E21.28523 F1800
G1 X83.317 Y100.000 Z1.40 E21.35729 F1800
G1 X83.460 Y97.822 Z1.40 E21.42936 F1800
G1 X83.886 Y95.682 Z1.40 E21.50142 F1800
G1 X84.587 Y93.616 Z1.40 E21.57349 F1800
G1 X85.552 Y91.659 Z1.40 E21.64555 F1800
G1 X86.765 Y89.844 Z1.40 E21.71762 F1800
G1 X88.203 Y88.203 Z1.40 E21.78968 F1800
G1 X89.844 Y86.765 Z1.40 E21.86175 F1800
G1 X91.659 Y85.552 Z1.40 E21.93381 F1800
G1 X93.616 Y84.587 Z1.40 E22.00588 F1800
G1 X95.682 Y83.886 Z1.40 E22.07794 F1800
G1 X97.822 Y83.460 Z1.40 E22.15001 F1800
G1 X100.000 Y83.317 Z1.40 E22.22207 F1800
G1 X102.178 Y83.460 Z1.40 E22.29414 F1800
G1 X104.318 Y83.886 Z1.40 E22.36620 F1800
G1 X106.384 Y84.587 Z1.40 E22.43827 F1800
G1 X108.341 Y85.552 Z1.40 E22.51033 F1800
G1 X110.156 Y86.765 Z1.40 E22.58240 F1800
G1 X111.797 Y88.203 Z1.40 E22.65447 F1800
G1 X113.235 Y89.844 Z1.40 E22.72653 F1800
G1 X114.448 Y91.659 Z1.40 E22.79860 F1800
G1 X115.413 Y93.616 Z1.40 E22.87066 F1800
G1 X116.114 Y95.682 Z1.40 E22.94273 F1800
G1 X116.540 Y97.822 Z1.40 E23.01479 F1800
G1 X116.683 Y100.000 Z1.40 E23.08686 F1800
G1 X116.695 Y102.198 Z1.60 E23.15959 F1800
G1 X116.265 Y104.358 Z1.60 E23.23233 F1800
G1 X115.557 Y106.444 Z1.60 E23.30507 F1800
G1 X114.583 Y108.419 Z1.60 E23.37781 F1800
G1 X113.359 Y110.251 Z1.60 E23.45055 F1800
G1 X111.907 Y111.907 Z1.60 E23.52329 F1800
G1 X110.251 Y113.359 Z1.60 E23.59603 F1800
G1 X108.419 Y114.583 Z1.60 E23.66877 F1800
G1 X106.444 Y115.557 Z1.60 E23.74150 F1800
G1 X104.358 Y116.265 Z1.60 E23.81424 F1800
G1 X102.198 Y116.695 Z1.60 E23.88698 F1800
G1 X100.000 Y116.839 Z1.60 E23.95972 F1800
G1 X97.802 Y116.695 Z1.60 E24.03246 F1800
G1 X95.642 Y116.265 Z1.60 E24.10520 F1800
G1 X93.556 Y115.557 Z1.60 E24.17794 F1800
G1 X91.581 Y114.583 Z1.60 E24.25068 F1800
G1 X89.749 Y113.359 Z1.60 E24.32342 F1800
G1 X88.093 Y111.907 Z1.60 E24.39615 F1800
G1 X86.641 Y110.251 Z1.60 E24.46889 F1800
G1 X85.417 Y108.419 Z1.60 E24.54163 F1800
G1 X84.443 Y106.444 Z1.60 E24.61437 F1800
G1 X83.735 Y104.358 Z1.60 E24.68711 F1800
G1 X83.305 Y102.198 Z1.60 E24.75985 F1800
G1 X83.161 Y100.000 Z1.60 E24.83259 F1800
G1 X83.305 Y97.802 Z1.60 E24.90533 F1800
G1 X83.735 Y95.642 Z1.60 E24.97806 F1800
G1 X84.443 Y93.556 Z1.60 E25.05080 F1800
G1 X85.417 Y91.581 Z1.60 E25.12354 F1800
G1 X86.641 Y89.749 Z1.60 E25.19628 F1800
G1 X88.093 Y88.093 Z1.60 E25.26902 F1800
G1 X89.749 Y86.641 Z1.60 E25.34176 F1800
G1 X91.581 Y85.417 Z1.60 E25.41450 F1800
G1 X93.556 Y84.443 Z1.60 E25.48724 F1800
G1 X95.642 Y83.735 Z1.60 E25.55997 F1800
G1 X97.802 Y83.305 Z1.60 E25.63271 F1800
G1 X100.000 Y83.161 Z1.60 E25.70545 F1800
G1 X102.198 Y83.305 Z1.60 E25.77819 F1800
G1 X104.358 Y83.735 Z1.60 E25.85093 F1800
G1 X106.444 Y84.443 Z1.60 E25.92367 F1800
G1 X108.419 Y85.417 Z1.60 E25.99641 F1800
G1 X110.251 Y86.641 Z1.60 E26.06915 F1800
G1 X111.907 Y88.093 Z1.60 E26.14188 F1800
G1 X113.359 Y89.749 Z1.60 E26.21462 F1800
G1 X114.583 Y91.581 Z1.60 E26.28736 F1800
G1 X115.557 Y93.556 Z1.60 E26.36010 F1800
G1 X116.265 Y95.642 Z1.60 E26.43284 F1800
G1 X116.695 Y97.802 Z1.60 E26.50558 F1800
G1 X116.839 Y100.000 Z1.60 E26.57832 F1800
G1 X116.799 Y102.212 Z1.80 E26.65151 F1800
G1 X116.367 Y104.385 Z1.80 E26.72470 F1800
G1 X115.654 Y106.484 Z1.80 E26.79789 F1800
G1 X114.674 Y108.472 Z1.80 E26.87109 F1800
G1 X113.442 Y110.315 Z1.80 E26.94428 F1800
G1 X111.981 Y111.981 Z1.80 E27.01747 F1800
G1 X110.315 Y113.442 Z1.80 E27.09066 F1800
G1 X108.472 Y114.674 Z1.80 E27.16386 F1800
G1 X106.484 Y115.654 Z1.80 E27.23705 F1800
G1 X104.385 Y116.367 Z1.80 E27.31024 F1800
G1 X102.212 Y116.799 Z1.80 E27.38343 F1800
G1 X100.000 Y116.944 Z1.80 E27.45662 F1800
G1 X97.788 Y116.799 Z1.80 E27.52982 F1800
G1 X95.615 Y116.367 Z1.80 E27.60301 F1800
G1 X93.516 Y115.654 Z1.80 E27.67620 F1800
G1 X91.528 Y114.674 Z1.80 E27.74939 F1800
G1 X89.685 Y113.442 Z1.80 E27.82259 F1800
G1 X88.019 Y111.981 Z1.80 E27.89578 F1800
G1 X86.558 Y110.315 Z1.80 E27.96897 F1800
G1 X85.326 Y108.472 Z1.80 E28.04216 F1800
G1 X84.346 Y106.484 Z1.80 E28.11536 F1800
G1 X83.633 Y104.385 Z1.80 E28.18855 F1800
G1 X83.201 Y102.212 Z1.80 E28.26174 F1800
G1 X83.056 Y100.000 Z1.80 E28.33493 F1800
G1 X83.201 Y97.788 Z1.80 E28.40812 F1800
G1 X83.633 Y95.615 Z1.80 E28.48132 F1800
G1 X84.346 Y93.516 Z1.80 E28.55451 F1800
G1 X85.326 Y91.528 Z1.80 E28.62770 F1800
G1 X86.558 Y89.685 Z1.80 E28.70089 F1800
G1 X88.019 Y88.019 Z1.80 E28.77409 F1800
G1 X89.685 Y86.558 Z1.80 E28.84728 F1800
G1 X91.528 Y85.326 Z1.80 E28.92047 F1800
G1 X93.516 Y84.346 Z1.80 E28.99366 F1800
G1 X95.615 Y83.633 Z1.80 E29.06686 F1800
G1 X97.788 Y83.201 Z1.80 E29.14005 F1800
G1 X100.000 Y83.056 Z1.80 E29.21324 F1800
G1 X102.212 Y83.201 Z1.80 E29.28643 F1800
G1 X104.385 Y83.633 Z1.80 E29.35962 F1800
G1 X106.484 Y84.346 Z1.80 E29.43282 F1800
G1 X108.472 Y85.326 Z1.80 E29.50601 F1800
G1 X110.315 Y86.558 Z1.80 E29.57920 F1800
G1 X111.981 Y88.019 Z1.80 E29.65239 F1800
G1 X113.442 Y89.685 Z1.80 E29.72559 F1800
G1 X114.674 Y91.528 Z1.80 E29.79878 F1800
G1 X115.654 Y93.516 Z1.80 E29.87197 F1800
G1 X116.367 Y95.615 Z1.80 E29.94516 F1800
G1 X116.799 Y97.788 Z1.80 E30.01836 F1800
G1 X116.944 Y100.000 Z1.80 E30.09155 F1800
G1 X116.850 Y102.218 Z2.00 E30.16496 F1800
G1 X116.416 Y104.399 Z2.00 E30.23837 F1800
G1 X115.701 Y106.504 Z2.00 E30.31179 F1800
G1 X114.718 Y108.497 Z2.00 E30.38520 F1800
G1 X113.483 Y110.346 Z2.00 E30.45861 F1800
G1 X112.017 Y112.017 Z2.00 E30.53203 F1800
G1 X110.346 Y113.483 Z2.00 E30.60544 F1800
G1 X108.497 Y114.718 Z2.00 E30.67885 F1800
G1 X106.504 Y115.701 Z2.00 E30.75227 F1800
G1 X104.399 Y116.416 Z2.00 E30.82568 F1800
G1 X102.218 Y116.850 Z2.00 E30.89909 F1800
G1 X100.000 Y116.995 Z2.00 E30.97250 F1800
G1 X97.782 Y116.850 Z2.00 E31.04592 F1800
G1 X95.601 Y116.416 Z2.00 E31.11933 F1800
G1 X93.496 Y115.701 Z2.00 E31.19274 F1800
G1 X91.503 Y114.718 Z2.00 E31.26616 F1800
G1 X89.654 Y113.483 Z2.00 E31.33957 F1800
G1 X87.983 Y112.017 Z2.00 E31.41298 F1800
G1 X86.517 Y110.346 Z2.00 E31.48640 F1800
G1 X85.282 Y108.497 Z2.00 E31.55981 F1800
G1 X84.299 Y106.504 Z2.00 E31.63322 F1800
G1 X83.584 Y104.399 Z2.00 E31.70664 F1800
G1 X83.150 Y102.218 Z2.00 E31.78005 F1800
G1 X83.005 Y100.000 Z2.00 E31.85346 F1800
G1 X83.150 Y97.782 Z2.00 E31.92687 F1800
G1 X83.584 Y95.601 Z2.00 E32.00029 F1800
G1 X84.299 Y93.496 Z2.00 E32.07370 F1800
G1 X85.282 Y91.503 Z2.00 E32.14711 F1800
G1 X86.517 Y89.654 Z2.00 E32.22053 F1800
G1 X87.983 Y87.983 Z2.00 E32.29394 F1800
G1 X89.654 Y86.517 Z2.00 E32.36735 F1800
G1 X91.503 Y85.282 Z2.00 E32.44077 F1800
G1 X93.496 Y84.299 Z2.00 E32.51418 F1800
G1 X95.601 Y83.584 Z2.00 E32.58759 F1800
G1 X97.782 Y83.150 Z2.00 E32.66101 F1800
G1 X100.000 Y83.005 Z2.00 E32.73442 F1800
G1 X102.218 Y83.150 Z2.00 E32.80783 F1800
G1 X104.399 Y83.584 Z2.00 E32.88124 F1800
G1 X106.504 Y84.299 Z2.00 E32.95466 F1800
G1 X108.497 Y85.282 Z2.00 E33.02807 F1800
G1 X110.346 Y86.517 Z2.00 E33.10148 F1800
G1 X112.017 Y87.983 Z2.00 E33.17490 F1800
G1 X113.483 Y89.654 Z2.00 E33.24831 F1800
G1 X114.718 Y91.503 Z2.00 E33.32172 F1800
G1 X115.701 Y93.496 Z2.00 E33.39514 F1800
G1 X116.416 Y95.601 Z2.00 E33.46855 F1800
G1 X116.850 Y97.782 Z2.00 E33.54196 F1800
G1 X116.995 Y100.000 Z2.00 E33.61538 F1800
G1 X116.845 Y102.218 Z2.20 E33.68877 F1800
G1 X116.412 Y104.398 Z2.20 E33.76217 F1800
G1 X115.697 Y106.502 Z2.20 E33.83556 F1800
G1 X114.714 Y108.495 Z2.20 E33.90896 F1800
G1 X113.480 Y110.343 Z2.20 E33.98235 F1800
G1 X112.014 Y112.014 Z2.20 E34.05575 F1800
G1 X110.343 Y113.480 Z2.20 E34.12914 F1800
G1 X108.495 Y114.714 Z2.20 E34.20254 F1800
G1 X106.502 Y115.697 Z2.20 E34.27593 F1800
G1 X104.398 Y116.412 Z2.20 E34.34933 F1800
G1 X102.218 Y116.845 Z2.20 E34.42272 F1800
G1 X100.000 Y116.991 Z2.20 E34.49612 F1800
G1 X97.782 Y116.845 Z2.20 E34.56951 F1800
G1 X95.602 Y116.412 Z2.20 E34.64291 F1800
G1 X93.498 Y115.697 Z2.20 E34.71630 F1800
G1 X91.505 Y114.714 Z2.20 E34.78970 F1800
G1 X89.657 Y113.480 Z2.20 E34.86309 F1800
G1 X87.986 Y112.014 Z2.20 E34.93649 F1800
G1 X86.520 Y110.343 Z2.20 E35.00988 F1800
G1 X85.286 Y108.495 Z2.20 E35.08328 F1800
G1 X84.303 Y106.502 Z2.20 E35.15667 F1800
G1 X83.588 Y104.398 Z2.20 E35.23007 F1800
G1 X83.155 Y102.218 Z2.20 E35.30346 F1800
G1 X83.009 Y100.000 Z2.20 E35.37686 F1800
G1 X83.155 Y97.782 Z2.20 E35.45025 F1800
G1 X83.588 Y95.602 Z2.20 E35.52365 F1800
G1 X84.303 Y93.498 Z2.20 E35.59704 F1800
G1 X85.286 Y91.505 Z2.20 E35.67044 F1800
G1 X86.520 Y89.657 Z2.20 E35.74383 F1800
G1 X87.986 Y87.986 Z2.20 E35.81723 F1800
G1 X89.657 Y86.520 Z2.20 E35.89062 F1800
G1 X91.505 Y85.286 Z2.20 E35.96402 F1800
G1 X93.498 Y84.303 Z2.20 E36.03741 F1800
G1 X95.602 Y83.588 Z2.20 E36.11081 F1800
G1 X97.782 Y83.155 Z2.20 E36.18420 F1800
G1 X100.000 Y83.009 Z2.20 E36.25760 F1800
G1 X102.218 Y83.155 Z2.20 E36.33099 F1800
G1 X104.398 Y83.588 Z2.20 E36.40439 F1800
G1 X106.502 Y84.303 Z2.20 E36.47778 F1800
G1 X108.495 Y85.286 Z2.20 E36.55118 F1800
G1 X110.343 Y86.520 Z2.20 E36.62457 F1800
G1 X112.014 Y87.986 Z2.20 E36.69797 F1800
G1 X113.480 Y89.657 Z2.20 E36.77136 F1800
G1 X114.714 Y91.505 Z2.20 E36.84476 F1800
G1 X115.697 Y93.498 Z2.20 E36.91815 F1800
G1 X116.412 Y95.602 Z2.20 E36.99155 F1800
G1 X116.845 Y97.782 Z2.20 E37.06494 F1800
G1 X116.991 Y100.000 Z2.20 E37.13834 F1800
G1 X116.787 Y102.210 Z2.40 E37.21148 F1800
G1 X116.355 Y104.382 Z2.40 E37.28462 F1800
G1 X115.643 Y106.479 Z2.40 E37.35775 F1800
G1 X114.663 Y108.466 Z2.40 E37.43089 F1800
G1 X113.433 Y110.307 Z2.40 E37.50403 F1800
G1 X111.972 Y111.972 Z2.40 E37.57717 F1800
G1 X110.307 Y113.433 Z2.40 E37.65031 F1800
G1 X108.466 Y114.663 Z2.40 E37.72345 F1800
G1 X106.479 Y115.643 Z2.40 E37.79659 F1800
G1 X104.382 Y116.355 Z2.40 E37.86973 F1800
G1 X102.210 Y116.787 Z2.40 E37.94286 F1800
G1 X100.000 Y116.931 Z2.40 E38.01600 F1800
G1 X97.790 Y116.787 Z2.40 E38.08914 F1800
G1 X95.618 Y116.355 Z2.40 E38.16228 F1800
G1 X93.521 Y115.643 Z2.40 E38.23542 F1800
G1 X91.534 Y114.663 Z2.40 E38.30856 F1800
G1 X89.693 Y113.433 Z2.40 E38.38170 F1800
G1 X88.028 Y111.972 Z2.40 E38.45483 F1800
G1 X86.567 Y110.307 Z2.40 E38.52797 F1800
G1 X85.337 Y108.466 Z2.40 E38.60111 F1800
G1 X84.357 Y106.479 Z2.40 E38.67425 F1800
G1 X83.645 Y104.382 Z2.40 E38.74739 F1800
G1 X83.213 Y102.210 Z2.40 E38.82053 F1800
G1 X83.069 Y100.000 Z2.40 E38.89367 F1800
G1 X83.213 Y97.790 Z2.40 E38.96681 F1800
G1 X83.645 Y95.618 Z2.40 E39.03994 F1800
G1 X84.357 Y93.521 Z2.40 E39.11308 F1800
G1 X85.337 Y91.534 Z2.40 E39.18622 F1800
G1 X86.567 Y89.693 Z2.40 E39.25936 F1800
G1 X88.028 Y88.028 Z2.40 E39.33250 F1800
G1 X89.693 Y86.567 Z2.40 E39.40564 F1800
G1 X91.534 Y85.337 Z2.40 E39.47878 F1800
G1 X93.521 Y84.357 Z2.40 E39.55192 F1800
G1 X95.618 Y83.645 Z2.40 E39.62505 F1800
G1 X97.790 Y83.213 Z2.40 E39.69819 F1800
G1 X100.000 Y83.069 Z2.40 E39.77133 F1800
G1 X102.210 Y83.213 Z2.40 E39.84447 F1800
G1 X104.382 Y83.645 Z2.40 E39.91761 F1800
G1 X106.479 Y84.357 Z2.40 E39.99075 F1800
G1 X108.466 Y85.337 Z2.40 E40.06389 F1800
G1 X110.307 Y86.567 Z2.40 E40.13702 F1800
G1 X111.972 Y88.028 Z2.40 E40.21016 F1800
G1 X113.433 Y89.693 Z2.40 E40.28330 F1800
G1 X114.663 Y91.534 Z2.40 E40.35644 F1800
G1 X115.643 Y93.521 Z2.40 E40.42958 F1800
G1 X116.355 Y95.618 Z2.40 E40.50272 F1800
G1 X116.787 Y97.790 Z2.40 E40.57586 F1800
G1 X116.931 Y100.000 Z2.40 E40.64900 F1800
G1 X116.675 Y102.195 Z2.60 E40.72165 F1800
G1 X116.246 Y104.353 Z2.60 E40.79430 F1800
G1 X115.538 Y106.436 Z2.60 E40.86695 F1800
G1 X114.565 Y108.409 Z2.60 E40.93960 F1800
G1 X113.343 Y110.239 Z2.60 E41.01225 F1800
G1 X111.893 Y111.893 Z2.60 E41.08490 F1800
G1 X110.239 Y113.343 Z2.60 E41.15755 F1800
G1 X108.409 Y114.565 Z2.60 E41.23020 F1800
G1 X106.436 Y115.538 Z2.60 E41.30286 F1800
G1 X104.353 Y116.246 Z2.60 E41.37551 F1800
G1 X102.195 Y116.675 Z2.60 E41.44816 F1800
G1 X100.000 Y116.819 Z2.60 E41.52081 F1800
G1 X97.805 Y116.675 Z2.60 E41.59346 F1800
G1 X95.647 Y116.246 Z2.60 E41.66611 F1800
G1 X93.564 Y115.538 Z2.60 E41.73876 F1800
G1 X91.591 Y114.565 Z2.60 E41.81141 F1800
G1 X89.761 Y113.343 Z2.60 E41.88406 F1800
G1 X88.107 Y111.893 Z2.60 E41.95672 F1800
G1 X86.657 Y110.239 Z2.60 E42.02937 F1800
G1 X85.435 Y108.409 Z2.60 E42.10202 F1800
G1 X84.462 Y106.436 Z2.60 E42.17467 F1800
G1 X83.754 Y104.353 Z2.60 E42.24732 F1800
G1 X83.325 Y102.195 Z2.60 E42.31997 F1800
G1 X83.181 Y100.000 Z2.60 E42.39262 F1800
G1 X83.325 Y97.805 Z2.60 E42.46527 F1800
G1 X83.754 Y95.647 Z2.60 E42.53792 F1800
G1 X84.462 Y93.564 Z2.60 E42.61058 F1800
G1 X85.435 Y91.591 Z2.60 E42.68323 F1800
G1 X86.657 Y89.761 Z2.60 E42.75588 F1800
G1 X88.107 Y88.107 Z2.60 E42.82853 F1800
G1 X89.761 Y86.657 Z2.60 E42.90118 F1800
G1 X91.591 Y85.435 Z2.60 E42.97383 F1800
G1 X93.564 Y84.462 Z2.60 E43.04648 F1800
G1 X95.647 Y83.754 Z2.60 E43.11913 F1800
G1 X97.805 Y83.325 Z2.60 E43.19178 F1800
G1 X100.000 Y83.181 Z2.60 E43.26444 F1800
G1 X102.195 Y83.325 Z2.60 E43.33709 F1800
G1 X104.353 Y83.754 Z2.60 E43.40974 F1800
G1 X106.436 Y84.462 Z2.60 E43.48239 F1800
G1 X108.409 Y85.435 Z2.60 E43.55504 F1800
G1 X110.239 Y86.657 Z2.60 E43.62769 F1800
G1 X111.893 Y88.107 Z2.60 E43.70034 F1800
G1 X113.343 Y89.761 Z2.60 E43.77299 F1800
G1 X114.565 Y91.591 Z2.60 E43.84564 F1800
G1 X115.538 Y93.564 Z2.60 E43.91830 F1800
G1 X116.246 Y95.647 Z2.60 E43.99095 F1800
G1 X116.675 Y97.805 Z2.60 E44.06360 F1800
G1 X116.819 Y100.000 Z2.60 E44.13625 F1800
G1 X116.513 Y102.174 Z2.80 E44.20819 F1800
G1 X116.088 Y104.311 Z2.80 E44.28014 F1800
G1 X115.388 Y106.374 Z2.80 E44.35209 F1800
G1 X114.424 Y108.328 Z2.80 E44.42403 F1800
G1 X113.214 Y110.139 Z2.80 E44.49598 F1800
G1 X111.777 Y111.777 Z2.80 E44.56792 F1800
G1 X110.139 Y113.214 Z2.80 E44.63987 F1800
G1 X108.328 Y114.424 Z2.80 E44.71182 F1800
G1 X106.374 Y115.388 Z2.80 E44.78376 F1800
G1 X104.311 Y116.088 Z2.80 E44.85571 F1800
G1 X102.174 Y116.513 Z2.80 E44.92765 F1800
G1 X100.000 Y116.655 Z2.80 E44.99960 F1800
G1 X97.826 Y116.513 Z2.80 E45.07154 F1800
G1 X95.689 Y116.088 Z2.80 E45.14349 F1800
G1 X93.626 Y115.388 Z2.80 E45.21544 F1800
G1 X91.672 Y114.424 Z2.80 E45.28738 F1800
G1 X89.861 Y113.214 Z2.80 E45.35933 F1800
G1 X88.223 Y111.777 Z2.80 E45.43127 F1800
G1 X86.786 Y110.139 Z2.80 E45.50322 F1800
G1 X85.576 Y108.328 Z2.80 E45.57517 F1800
G1 X84.612 Y106.374 Z2.80 E45.64711 F1800
G1 X83.912 Y104.311 Z2.80 E45.71906 F1800
G1 X83.487 Y102.174 Z2.80 E45.79100 F1800
G1 X83.345 Y100.000 Z2.80 E45.86295 F1800
G1 X83.487 Y97.826 Z2.80 E45.93489 F1800
G1 X83.912 Y95.689 Z2.80 E46.00684 F1800
G1 X84.612 Y93.626 Z2.80 E46.07879 F1800
G1 X85.576 Y91.672 Z2.80 E46.15073 F1800
G1 X86.786 Y89.861 Z2.80 E46.22268 F1800
G1 X88.223 Y88.223 Z2.80 E46.29462 F1800
G1 X89.861 Y86.786 Z2.80 E46.36657 F1800
G1 X91.672 Y85.576 Z2.80 E46.43852 F1800
G1 X93.626 Y84.612 Z2.80 E46.51046 F1800
G1 X95.689 Y83.912 Z2.80 E46.58241 F1800
G1 X97.826 Y83.487 Z2.80 E46.65435 F1800
G1 X100.000 Y83.345 Z2.80 E46.72630 F1800
G1 X102.174 Y83.487 Z2.80 E46.79824 F1800
G1 X104.311 Y83.912 Z2.80 E46.87019 F1800
G1 X106.374 Y84.612 Z2.80 E46.94214 F1800
G1 X108.328 Y85.576 Z2.80 E47.01408 F1800
G1 X110.139 Y86.786 Z2.80 E47.08603 F1800
G1 X111.777 Y88.223 Z2.80 E47.15797 F1800
G1 X113.214 Y89.861 Z2.80 E47.22992 F1800
G1 X114.424 Y91.672 Z2.80 E47.30187 F1800
G1 X115.388 Y93.626 Z2.80 E47.37381 F1800
G1 X116.088 Y95.689 Z2.80 E47.44576 F1800
G1 X116.513 Y97.826 Z2.80 E47.51770 F1800
G1 X116.655 Y100.000 Z2.80 E47.58965 F1800
G1 X116.305 Y102.147 Z3.00 E47.66069 F1800
G1 X115.886 Y104.257 Z3.00 E47.73173 F1800
G1 X115.194 Y106.294 Z3.00 E47.80278 F1800
G1 X114.243 Y108.223 Z3.00 E47.87382 F1800
G1 X113.048 Y110.012 Z3.00 E47.94486 F1800
G1 X111.629 Y111.629 Z3.00 E48.01590 F1800
G1 X110.012 Y113.048 Z3.00 E48.08695 F1800
G1 X108.223 Y114.243 Z3.00 E48.15799 F1800
G1 X106.294 Y115.194 Z3.00 E48.22903 F1800
G1 X104.257 Y115.886 Z3.00 E48.30007 F1800
G1 X102.147 Y116.305 Z3.00 E48.37111 F1800
G1 X100.000 Y116.446 Z3.00 E48.44216 F1800
G1 X97.853 Y116.305 Z3.00 E48.51320 F1800
G1 X95.743 Y115.886 Z3.00 E48.58424 F1800
G1 X93.706 Y115.194 Z3.00 E48.65528 F1800
G1 X91.777 Y114.243 Z3.00 E48.72633 F1800
G1 X89.988 Y113.048 Z3.00 E48.79737 F1800
G1 X88.371 Y111.629 Z3.00 E48.86841 F1800
G1 X86.952 Y110.012 Z3.00 E48.93945 F1800
G1 X85.757 Y108.223 Z3.00 E49.01050 F1800
G1 X84.806 Y106.294 Z3.00 E49.08154 F1800
G1 X84.114 Y104.257 Z3.00 E49.15258 F1800
G1 X83.695 Y102.147 Z3.00 E49.22362 F1800
G1 X83.554 Y100.000 Z3.00 E49.29467 F1800
G1 X83.695 Y97.853 Z3.00 E49.36571 F1800
G1 X84.114 Y95.743 Z3.00 E49.43675 F1800
G1 X84.806 Y93.706 Z3.00 E49.50779 F1800
G1 X85.757 Y91.777 Z3.00 E49.57883 F1800
G1 X86.952 Y89.988 Z3.00 E49.64988 F1800
G1 X88.371 Y88.371 Z3.00 E49.72092 F1800
G1 X89.988 Y86.952 Z3.00 E49.79196 F1800
G1 X91.777 Y85.757 Z3.00 E49.86300 F1800
G1 X93.706 Y84.806 Z3.00 E49.93405 F1800
G1 X95.743 Y84.114 Z3.00 E50.00509 F1800
G1 X97.853 Y83.695 Z3.00 E50.07613 F1800
G1 X100.000 Y83.554 Z3.00 E50.14717 F1800
G1 X102.147 Y83.695 Z3.00 E50.21822 F1800
G1 X104.257 Y84.114 Z3.00 E50.28926 F1800
G1 X106.294 Y84.806 Z3.00 E50.36030 F1800
G1 X108.223 Y85.757 Z3.00 E50.43134 F1800
G1 X110.012 Y86.952 Z3.00 E50.50239 F1800
G1 X111.629 Y88.371 Z3.00 E50.57343 F1800
G1 X113.048 Y89.988 Z3.00 E50.64447 F1800
G1 X114.243 Y91.777 Z3.00 E50.71551 F1800
G1 X115.194 Y93.706 Z3.00 E50.78655 F1800
G1 X115.886 Y95.743 Z3.00 E50.85760 F1800
G1 X116.305 Y97.853 Z3.00 E50.92864 F1800
G1 X116.446 Y100.000 Z3.00 E50.99968 F1800
G1 X116.058 Y102.114 Z3.20 E51.06965 F1800
G1 X115.645 Y104.192 Z3.20 E51.13961 F1800
G1 X114.964 Y106.198 Z3.20 E51.20958 F1800
G1 X114.027 Y108.098 Z3.20 E51.27955 F1800
G1 X112.850 Y109.860 Z3.20 E51.34951 F1800
G1 X111.453 Y111.453 Z3.20 E51.41948 F1800
G1 X109.860 Y112.850 Z3.20 E51.48944 F1800
G1 X108.098 Y114.027 Z3.20 E51.55941 F1800
G1 X106.198 Y114.964 Z3.20 E51.62937 F1800
G1 X104.192 Y115.645 Z3.20 E51.69934 F1800
G1 X102.114 Y116.058 Z3.20 E51.76931 F1800
G1 X100.000 Y116.197 Z3.20 E51.83927 F1800
G1 X97.886 Y116.058 Z3.20 E51.90924 F1800
G1 X95.808 Y115.645 Z3.20 E51.97920 F1800
G1 X93.802 Y114.964 Z3.20 E52.04917 F1800
G1 X91.902 Y114.027 Z3.20 E52.11913 F1800
G1 X90.140 Y112.850 Z3.20 E52.18910 F1800
G1 X88.547 Y111.453 Z3.20 E52.25907 F1800
G1 X87.150 Y109.860 Z3.20 E52.32903 F1800
G1 X85.973 Y108.098 Z3.20 E52.39900 F1800
G1 X85.036 Y106.198 Z3.20 E52.46896 F1800
G1 X84.355 Y104.192 Z3.20 E52.53893 F1800
G1 X83.942 Y102.114 Z3.20 E52.60889 F1800
G1 X83.803 Y100.000 Z3.20 E52.67886 F1800
G1 X83.942 Y97.886 Z3.20 E52.74883 F1800
G1 X84.355 Y95.808 Z3.20 E52.81879 F1800
G1 X85.036 Y93.802 Z3.20 E52.88876 F1800
G1 X85.973 Y91.902 Z3.20 E52.95872 F1800
G1 X87.150 Y90.140 Z3.20 E53.02869 F1800
G1 X88.547 Y88.547 Z3.20 E53.09866 F1800
G1 X90.140 Y87.150 Z3.20 E53.16862 F1800
G1 X91.902 Y85.973 Z3.20 E53.23859 F1800
G1 X93.802 Y85.036 Z3.20 E53.30855 F1800
G1 X95.808 Y84.355 Z3.20 E53.37852 F1800
G1 X97.886 Y83.942 Z3.20 E53.44848 F1800
G1 X100.000 Y83.803 Z3.20 E53.51845 F1800
G1 X102.114 Y83.942 Z3.20 E53.58842 F1800
G1 X104.192 Y84.355 Z3.20 E53.65838 F1800
G1 X106.198 Y85.036 Z3.20 E53.72835 F1800
G1 X108.098 Y85.973 Z3.20 E53.79831 F1800
G1 X109.860 Y87.150 Z3.20 E53.86828 F1800
G1 X111.453 Y88.547 Z3.20 E53.93824 F1800
G1 X112.850 Y90.140 Z3.20 E54.00821 F1800
G1 X114.027 Y91.902 Z3.20 E54.07818 F1800
G1 X114.964 Y93.802 Z3.20 E54.14814 F1800
G1 X115.645 Y95.808 Z3.20 E54.21811 F1800
G1 X116.058 Y97.886 Z3.20 E54.28807 F1800
G1 X116.197 Y100.000 Z3.20 E54.35804 F1800
G1 X115.778 Y102.077 Z3.40 E54.42679 F1800
G1 X115.372 Y104.119 Z3.40 E54.49553 F1800
G1 X114.703 Y106.090 Z3.40 E54.56428 F1800
G1 X113.782 Y107.957 Z3.40 E54.63302 F1800
G1 X112.626 Y109.688 Z3.40 E54.70177 F1800
G1 X111.253 Y111.253 Z3.40 E54.77051 F1800
G1 X109.688 Y112.626 Z3.40 E54.83926 F1800
G1 X107.957 Y113.782 Z3.40 E54.90801 F1800
G1 X106.090 Y114.703 Z3.40 E54.97675 F1800
G1 X104.119 Y115.372 Z3.40 E55.04550 F1800
G1 X102.077 Y115.778 Z3.40 E55.11424 F1800
G1 X100.000 Y115.915 Z3.40 E55.18299 F1800
G1 X97.923 Y115.778 Z3.40 E55.25174 F1800
G1 X95.881 Y115.372 Z3.40 E55.32048 F1800
G1 X93.910 Y114.703 Z3.40 E55.38923 F1800
G1 X92.043 Y113.782 Z3.40 E55.45797 F1800
G1 X90.312 Y112.626 Z3.40 E55.52672 F1800
G1 X88.747 Y111.253 Z3.40 E55.59547 F1800
G1 X87.374 Y109.688 Z3.40 E55.66421 F1800
G1 X86.218 Y107.957 Z3.40 E55.73296 F1800
G1 X85.297 Y106.090 Z3.40 E55.80170 F1800
G1 X84.628 Y104.119 Z3.40 E55.87045 F1800
G1 X84.222 Y102.077 Z3.40 E55.93919 F1800
G1 X84.085 Y100.000 Z3.40 E56.00794 F1800
G1 X84.222 Y97.923 Z3.40 E56.07669 F1800
G1 X84.628 Y95.881 Z3.40 E56.14543 F1800
G1 X85.297 Y93.910 Z3.40 E56.21418 F1800
G1 X86.218 Y92.043 Z3.40 E56.28292 F1800
G1 X87.374 Y90.312 Z3.40 E56.35167 F1800
G1 X88.747 Y88.747 Z3.40 E56.42042 F1800
G1 X90.312 Y87.374 Z3.40 E56.48916 F1800
G1 X92.043 Y86.218 Z3.40 E56.55791 F1800
G1 X93.910 Y85.297 Z3.40 E56.62665 F1800
G1 X95.881 Y84.628 Z3.40 E56.69540 F1800
G1 X97.923 Y84.222 Z3.40 E56.76415 F1800
G1 X100.000 Y84.085 Z3.40 E56.83289 F1800
G1 X102.077 Y84.222 Z3.40 E56.90164 F1800
G1 X104.119 Y84.628 Z3.40 E56.97038 F1800
G1 X106.090 Y85.297 Z3.40 E57.03913 F1800
G1 X107.957 Y86.218 Z3.40 E57.10788 F1800
G1 X109.688 Y87.374 Z3.40 E57.17662 F1800
G1 X111.253 Y88.747 Z3.40 E57.24537 F1800
G1 X112.626 Y90.312 Z3.40 E57.31411 F1800
G1 X113.782 Y92.043 Z3.40 E57.38286 F1800
G1 X114.703 Y93.910 Z3.40 E57.45160 F1800
G1 X115.372 Y95.881 Z3.40 E57.52035 F1800
G1 X115.778 Y97.923 Z3.40 E57.58910 F1800
G1 X115.915 Y100.000 Z3.40 E57.65784 F1800
G1 X115.473 Y102.037 Z3.60 E57.72526 F1800
G1 X115.075 Y104.039 Z3.60 E57.79268 F1800
G1 X114.419 Y105.972 Z3.60 E57.86009 F1800
G1 X113.516 Y107.803 Z3.60 E57.92751 F1800
G1 X112.382 Y109.501 Z3.60 E57.99493 F1800
G1 X111.036 Y111.036 Z3.60 E58.06234 F1800
G1 X109.501 Y112.382 Z3.60 E58.12976 F1800
G1 X107.803 Y113.516 Z3.60 E58.19717 F1800
G1 X105.972 Y114.419 Z3.60 E58.26459 F1800
G1 X104.039 Y115.075 Z3.60 E58.33201 F1800
G1 X102.037 Y115.473 Z3.60 E58.39942 F1800
G1 X100.000 Y115.607 Z3.60 E58.46684 F1800
G1 X97.963 Y115.473 Z3.60 E58.53426 F1800
G1 X95.961 Y115.075 Z3.60 E58.60167 F1800
G1 X94.028 Y114.419 Z3.60 E58.66909 F1800
G1 X92.197 Y113.516 Z3.60 E58.73651 F1800
G1 X90.499 Y112.382 Z3.60 E58.80392 F1800
G1 X88.964 Y111.036 Z3.60 E58.87134 F1800
G1 X87.618 Y109.501 Z3.60 E58.93876 F1800
G1 X86.484 Y107.803 Z3.60 E59.00617 F1800
G1 X85.581 Y105.972 Z3.60 E59.07359 F1800
G1 X84.925 Y104.039 Z3.60 E59.14101 F1800
G1 X84.527 Y102.037 Z3.60 E59.20842 F1800
G1 X84.393 Y100.000 Z3.60 E59.27584 F1800
G1 X84.527 Y97.963 Z3.60 E59.34326 F1800
G1 X84.925 Y95.961 Z3.60 E59.41067 F1800
G1 X85.581 Y94.028 Z3.60 E59.47809 F1800
G1 X86.484 Y92.197 Z3.60 E59.54551 F1800
G1 X87.618 Y90.499 Z3.60 E59.61292 F1800
G1 X88.964 Y88.964 Z3.60 E59.68034 F1800
G1 X90.499 Y87.618 Z3.60 E59.74776 F1800
G1 X92.197 Y86.484 Z3.60 E59.81517 F1800
G1 X94.028 Y85.581 Z3.60 E59.88259 F1800
G1 X95.961 Y84.925 Z3.60 E59.95000 F1800
G1 X97.963 Y84.527 Z3.60 E60.01742 F1800
G1 X100.000 Y84.393 Z3.60 E60.08484 F1800
G1 X102.037 Y84.527 Z3.60 E60.15225 F1800
G1 X104.039 Y84.925 Z3.60 E60.21967 F1800
G1 X105.972 Y85.581 Z3.60 E60.28709 F1800
G1 X107.803 Y86.484 Z3.60 E60.35450 F1800
G1 X109.501 Y87.618 Z3.60 E60.42192 F1800
G1 X111.036 Y88.964 Z3.60 E60.48934 F1800
G1 X112.382 Y90.499 Z3.60 E60.55675 F1800
G1 X113.516 Y92.197 Z3.60 E60.62417 F1800
G1 X114.419 Y94.028 Z3.60 E60.69159 F1800
G1 X115.075 Y95.961 Z3.60 E60.75900 F1800
G1 X115.473 Y97.963 Z3.60 E60.82642 F1800
G1 X115.607 Y100.000 Z3.60 E60.89384 F1800
G1 X115.151 Y101.995 Z3.80 E60.95985 F1800
G1 X114.762 Y103.955 Z3.80 E61.02587 F1800
G1 X114.119 Y105.848 Z3.80 E61.09188 F1800
G1 X113.235 Y107.641 Z3.80 E61.15789 F1800
G1 X112.124 Y109.303 Z3.80 E61.22391 F1800
G1 X110.806 Y110.806 Z3.80 E61.28992 F1800
G1 X109.303 Y112.124 Z3.80 E61.35594 F1800
G1 X107.641 Y113.235 Z3.80 E61.42195 F1800
G1 X105.848 Y114.119 Z3.80 E61.48797 F1800
G1 X103.955 Y114.762 Z3.80 E61.55398 F1800
G1 X101.995 Y115.151 Z3.80 E61.62000 F1800
G1 X100.000 Y115.282 Z3.80 E61.68601 F1800
G1 X98.005 Y115.151 Z3.80 E61.75203 F1800
G1 X96.045 Y114.762 Z3.80 E61.81804 F1800
G1 X94.152 Y114.119 Z3.80 E61.88405 F1800
G1 X92.359 Y113.235 Z3.80 E61.95007 F1800
G1 X90.697 Y112.124 Z3.80 E62.01608 F1800
G1 X89.194 Y110.806 Z3.80 E62.08210 F1800
G1 X87.876 Y109.303 Z3.80 E62.14811 F1800
G1 X86.765 Y107.641 Z3.80 E62.21413 F1800
G1 X85.881 Y105.848 Z3.80 E62.28014 F1800
G1 X85.238 Y103.955 Z3.80 E62.34616 F1800
G1 X84.849 Y101.995 Z3.80 E62.41217 F1800
G1 X84.718 Y100.000 Z3.80 E62.47819 F1800
G1 X84.849 Y98.005 Z3.80 E62.54420 F1800
G1 X85.238 Y96.045 Z3.80 E62.61021 F1800
G1 X85.881 Y94.152 Z3.80 E62.67623 F1800
G1 X86.765 Y92.359 Z3.80 E62.74224 F1800
G1 X87.876 Y90.697 Z3.80 E62.80826 F1800
G1 X89.194 Y89.194 Z3.80 E62.87427 F1800
G1 X90.697 Y87.876 Z3.80 E62.94029 F1800
G1 X92.359 Y86.765 Z3.80 E63.00630 F1800
G1 X94.152 Y85.881 Z3.80 E63.07232 F1800
G1 X96.045 Y85.238 Z3.80 E63.13833 F1800
G1 X98.005 Y84.849 Z3.80 E63.20435 F1800
G1 X100.000 Y84.718 Z3.80 E63.27036 F1800
G1 X101.995 Y84.849 Z3.80 E63.33637 F1800
G1 X103.955 Y85.238 Z3.80 E63.40239 F1800
G1 X105.848 Y85.881 Z3.80 E63.46840 F1800
G1 X107.641 Y86.765 Z3.80 E63.53442 F1800
G1 X109.303 Y87.876 Z3.80 E63.60043 F1800
G1 X110.806 Y89.194 Z3.80 E63.66645 F1800
G1 X112.124 Y90.697 Z3.80 E63.73246 F1800
G1 X113.235 Y92.359 Z3.80 E63.79848 F1800
G1 X114.119 Y94.152 Z3.80 E63.86449 F1800
G1 X114.762 Y96.045 Z3.80 E63.93051 F1800
G1 X115.151 Y98.005 Z3.80 E63.99652 F1800
G1 X115.282 Y100.000 Z3.80 E64.06253 F1800
G1 X114.822 Y101.951 Z4.00 E64.12711 F1800
G1 X114.440 Y103.869 Z4.00 E64.19169 F1800
G1 X113.812 Y105.721 Z4.00 E64.25627 F1800
G1 X112.947 Y107.475 Z4.00 E64.32085 F1800
G1 X111.861 Y109.101 Z4.00 E64.38543 F1800
G1 X110.571 Y110.571 Z4.00 E64.45001 F1800
G1 X109.101 Y111.861 Z4.00 E64.51459 F1800
G1 X107.475 Y112.947 Z4.00 E64.57916 F1800
G1 X105.721 Y113.812 Z4.00 E64.64374 F1800
G1 X103.869 Y114.440 Z4.00 E64.70832 F1800
G1 X101.951 Y114.822 Z4.00 E64.77290 F1800
G1 X100.000 Y114.950 Z4.00 E64.83748 F1800
G1 X98.049 Y114.822 Z4.00 E64.90206 F1800
G1 X96.131 Y114.440 Z4.00 E64.96664 F1800
G1 X94.279 Y113.812 Z4.00 E65.03122 F1800
G1 X92.525 Y112.947 Z4.00 E65.09579 F1800
G1 X90.899 Y111.861 Z4.00 E65.16037 F1800
G1 X89.429 Y110.571 Z4.00 E65.22495 F1800
G1 X88.139 Y109.101 Z4.00 E65.28953 F1800
G1 X87.053 Y107.475 Z4.00 E65.35411 F1800
G1 X86.188 Y105.721 Z4.00 E65.41869 F1800
G1 X85.560 Y103.869 Z4.00 E65.48327 F1800
G1 X85.178 Y101.951 Z4.00 E65.54785 F1800
G1 X85.050 Y100.000 Z4.00 E65.61242 F1800
G1 X85.178 Y98.049 Z4.00 E65.67700 F1800
G1 X85.560 Y96.131 Z4.00 E65.74158 F1800
G1 X86.188 Y94.279 Z4.00 E65.80616 F1800
G1 X87.053 Y92.525 Z4.00 E65.87074 F1800
G1 X88.139 Y90.899 Z4.00 E65.93532 F1800
G1 X89.429 Y89.429 Z4.00 E65.99990 F1800
G1 X90.899 Y88.139 Z4.00 E66.06448 F1800
G1 X92.525 Y87.053 Z4.00 E66.12905 F1800
G1 X94.279 Y86.188 Z4.00 E66.19363 F1800
G1 X96.131 Y85.560 Z4.00 E66.25821 F1800
G1 X98.049 Y85.178 Z4.00 E66.32279 F1800
G1 X100.000 Y85.050 Z4.00 E66.38737 F1800
G1 X101.951 Y85.178 Z4.00 E66.45195 F1800
G1 X103.869 Y85.560 Z4.00 E66.51653 F1800
G1 X105.721 Y86.188 Z4.00 E66.58111 F1800
G1 X107.475 Y87.053 Z4.00 E66.64568 F1800
G1 X109.101 Y88.139 Z4.00 E66.71026 F1800
G1 X110.571 Y89.429 Z4.00 E66.77484 F1800
G1 X111.861 Y90.899 Z4.00 E66.83942 F1800
G1 X112.947 Y92.525 Z4.00 E66.90400 F1800
G1 X113.812 Y94.279 Z4.00 E66.96858 F1800
G1 X114.440 Y96.131 Z4.00 E67.03316 F1800
G1 X114.822 Y98.049 Z4.00 E67.09774 F1800
G1 X114.950 Y100.000 Z4.00 E67.16231 F1800
G1 X114.494 Y101.908 Z4.20 E67.22546 F1800
G1 X114.121 Y103.784 Z4.20 E67.28861 F1800
G1 X113.506 Y105.594 Z4.20 E67.35176 F1800
G1 X112.660 Y107.309 Z4.20 E67.41491 F1800
G1 X111.598 Y108.899 Z4.20 E67.47806 F1800
G1 X110.337 Y110.337 Z4.20 E67.54121 F1800
G1 X108.899 Y111.598 Z4.20 E67.60436 F1800
G1 X107.309 Y112.660 Z4.20 E67.66751 F1800
G1 X105.594 Y113.506 Z4.20 E67.73065 F1800
G1 X103.784 Y114.121 Z4.20 E67.79380 F1800
G1 X101.908 Y114.494 Z4.20 E67.85695 F1800
G1 X100.000 Y114.619 Z4.20 E67.92010 F1800
G1 X98.092 Y114.494 Z4.20 E67.98325 F1800
G1 X96.216 Y114.121 Z4.20 E68.04640 F1800
G1 X94.406 Y113.506 Z4.20 E68.10955 F1800
G1 X92.691 Y112.660 Z4.20 E68.17270 F1800
G1 X91.101 Y111.598 Z4.20 E68.23585 F1800
G1 X89.663 Y110.337 Z4.20 E68.29900 F1800
G1 X88.402 Y108.899 Z4.20 E68.36214 F1800
G1 X87.340 Y107.309 Z4.20 E68.42529 F1800
G1 X86.494 Y105.594 Z4.20 E68.48844 F1800
G1 X85.879 Y103.784 Z4.20 E68.55159 F1800
G1 X85.506 Y101.908 Z4.20 E68.61474 F1800
G1 X85.381 Y100.000 Z4.20 E68.67789 F1800
G1 X85.506 Y98.092 Z4.20 E68.74104 F1800
G1 X85.879 Y96.216 Z4.20 E68.80419 F1800
G1 X86.494 Y94.406 Z4.20 E68.86734 F1800
G1 X87.340 Y92.691 Z4.20 E68.93048 F1800
G1 X88.402 Y91.101 Z4.20 E68.99363 F1800
G1 X89.663 Y89.663 Z4.20 E69.05678 F1800
G1 X91.101 Y88.402 Z4.20 E69.11993 F1800
G1 X92.691 Y87.340 Z4.20 E69.18308 F1800
G1 X94.406 Y86.494 Z4.20 E69.24623 F1800
G1 X96.216 Y85.879 Z4.20 E69.30938 F1800
G1 X98.092 Y85.506 Z4.20 E69.37253 F1800
G1 X100.000 Y85.381 Z4.20 E69.43568 F1800
G1 X101.908 Y85.506 Z4.20 E69.49883 F1800
G1 X103.784 Y85.879 Z4.20 E69.56197 F1800
G1 X105.594 Y86.494 Z4.20 E69.62512 F1800
G1 X107.309 Y87.340 Z4.20 E69.68827 F1800
G1 X108.899 Y88.402 Z4.20 E69.75142 F1800
G1 X110.337 Y89.663 Z4.20 E69.81457 F1800
G1 X111.598 Y91.101 Z4.20 E69.87772 F1800
G1 X112.660 Y92.691 Z4.20 E69.94087 F1800
G1 X113.506 Y94.406 Z4.20 E70.00402 F1800
G1 X114.121 Y96.216 Z4.20 E70.06717 F1800
G1 X114.494 Y98.092 Z4.20 E70.13032 F1800
G1 X114.619 Y100.000 Z4.20 E70.19346 F1800
G1 X114.176 Y101.866 Z4.40 E70.25523 F1800
G1 X113.811 Y103.701 Z4.40 E70.31699 F1800
G1 X113.210 Y105.472 Z4.40 E70.37876 F1800
G1 X112.383 Y107.149 Z4.40 E70.44052 F1800
G1 X111.344 Y108.704 Z4.40 E70.50229 F1800
G1 X110.111 Y110.111 Z4.40 E70.56405 F1800
G1 X108.704 Y111.344 Z4.40 E70.62582 F1800
G1 X107.149 Y112.383 Z4.40 E70.68758 F1800
G1 X105.472 Y113.210 Z4.40 E70.74935 F1800
G1 X103.701 Y113.811 Z4.40 E70.81111 F1800
G1 X101.866 Y114.176 Z4.40 E70.87288 F1800
G1 X100.000 Y114.298 Z4.40 E70.93464 F1800
G1 X98.134 Y114.176 Z4.40 E70.99641 F1800
G1 X96.299 Y113.811 Z4.40 E71.05817 F1800
G1 X94.528 Y113.210 Z4.40 E71.11994 F1800
G1 X92.851 Y112.383 Z4.40 E71.18170 F1800
G1 X91.296 Y111.344 Z4.40 E71.24347 F1800
G1 X89.889 Y110.111 Z4.40 E71.30523 F1800
G1 X88.656 Y108.704 Z4.40 E71.36700 F1800
G1 X87.617 Y107.149 Z4.40 E71.42876 F1800
G1 X86.790 Y105.472 Z4.40 E71.49052 F1800
G1 X86.189 Y103.701 Z4.40 E71.55229 F1800
G1 X85.824 Y101.866 Z4.40 E71.61405 F1800
G1 X85.702 Y100.000 Z4.40 E71.67582 F1800
G1 X85.824 Y98.134 Z4.40 E71.73758 F1800
G1 X86.189 Y96.299 Z4.40 E71.79935 F1800
G1 X86.790 Y94.528 Z4.40 E71.86111 F1800
G1 X87.617 Y92.851 Z4.40 E71.92288 F1800
G1 X88.656 Y91.296 Z4.40 E71.98464 F1800
G1 X89.889 Y89.889 Z4.40 E72.04641 F1800
G1 X91.296 Y88.656 Z4.40 E72.10817 F1800
G1 X92.851 Y87.617 Z4.40 E72.16994 F1800
G1 X94.528 Y86.790 Z4.40 E72.23170 F1800
G1 X96.299 Y86.189 Z4.40 E72.29347 F1800
G1 X98.134 Y85.824 Z4.40 E72.35523 F1800
G1 X100.000 Y85.702 Z4.40 E72.41700 F1800
G1 X101.866 Y85.824 Z4.40 E72.47876 F1800
G1 X103.701 Y86.189 Z4.40 E72.54053 F1800
G1 X105.472 Y86.790 Z4.40 E72.60229 F1800
G1 X107.149 Y87.617 Z4.40 E72.66406 F1800
G1 X108.704 Y88.656 Z4.40 E72.72582 F1800
G1 X110.111 Y89.889 Z4.40 E72.78759 F1800
G1 X111.344 Y91.296 Z4.40 E72.84935 F1800
G1 X112.383 Y92.851 Z4.40 E72.91112 F1800
G1 X113.210 Y94.528 Z4.40 E72.97288 F1800
G1 X113.811 Y96.299 Z4.40 E73.03464 F1800
G1 X114.176 Y98.134 Z4.40 E73.09641 F1800
G1 X114.298 Y100.000 Z4.40 E73.15817 F1800
G1 X113.878 Y101.827 Z4.60 E73.21864 F1800
G1 X113.520 Y103.623 Z4.60 E73.27910 F1800
G1 X112.932 Y105.357 Z4.60 E73.33957 F1800
G1 X112.122 Y106.999 Z4.60 E73.40003 F1800
G1 X111.105 Y108.521 Z4.60 E73.46050 F1800
G1 X109.898 Y109.898 Z4.60 E73.52096 F1800
G1 X108.521 Y111.105 Z4.60 E73.58143 F1800
G1 X106.999 Y112.122 Z4.60 E73.64189 F1800
G1 X105.357 Y112.932 Z4.60 E73.70236 F1800
G1 X103.623 Y113.520 Z4.60 E73.76282 F1800
G1 X101.827 Y113.878 Z4.60 E73.82329 F1800
G1 X100.000 Y113.997 Z4.60 E73.88375 F1800
G1 X98.173 Y113.878 Z4.60 E73.94421 F1800
G1 X96.377 Y113.520 Z4.60 E74.00468 F1800
G1 X94.643 Y112.932 Z4.60 E74.06514 F1800
G1 X93.001 Y112.122 Z4.60 E74.12561 F1800
G1 X91.479 Y111.105 Z4.60 E74.18607 F1800
G1 X90.102 Y109.898 Z4.60 E74.24654 F1800
G1 X88.895 Y108.521 Z4.60 E74.30700 F1800
G1 X87.878 Y106.999 Z4.60 E74.36747 F1800
G1 X87.068 Y105.357 Z4.60 E74.42793 F1800
G1 X86.480 Y103.623 Z4.60 E74.48840 F1800
G1 X86.122 Y101.827 Z4.60 E74.54886 F1800
G1 X86.003 Y100.000 Z4.60 E74.60933 F1800
G1 X86.122 Y98.173 Z4.60 E74.66979 F1800
G1 X86.480 Y96.377 Z4.60 E74.73025 F1800
G1 X87.068 Y94.643 Z4.60 E74.79072 F1800
G1 X87.878 Y93.001 Z4.60 E74.85118 F1800
G1 X88.895 Y91.479 Z4.60 E74.91165 F1800
G1 X90.102 Y90.102 Z4.60 E74.97211 F1800
G1 X91.479 Y88.895 Z4.60 E75.03258 F1800
G1 X93.001 Y87.878 Z4.60 E75.09304 F1800
G1 X94.643 Y87.068 Z4.60 E75.15351 F1800
G1 X96.377 Y86.480 Z4.60 E75.21397 F1800
G1 X98.173 Y86.122 Z4.60 E75.27444 F1800
G1 X100.000 Y86.003 Z4.60 E75.33490 F1800
G1 X101.827 Y86.122 Z4.60 E75.39537 F1800
G1 X103.623 Y86.480 Z4.60 E75.45583 F1800
G1 X105.357 Y87.068 Z4.60 E75.51629 F1800
G1 X106.999 Y87.878 Z4.60 E75.57676 F1800
G1 X108.521 Y88.895 Z4.60 E75.63722 F1800
G1 X109.898 Y90.102 Z4.60 E75.69769 F1800
G1 X111.105 Y91.479 Z4.60 E75.75815 F1800
G1 X112.122 Y93.001 Z4.60 E75.81862 F1800
G1 X112.932 Y94.643 Z4.60 E75.87908 F1800
G1 X113.520 Y96.377 Z4.60 E75.93955 F1800
G1 X113.878 Y98.173 Z4.60 E76.00001 F1800
G1 X113.997 Y100.000 Z4.60 E76.06048 F1800
G1 X113.607 Y101.791 Z4.80 E76.11976 F1800
G1 X113.257 Y103.552 Z4.80 E76.17905 F1800
G1 X112.680 Y105.252 Z4.80 E76.23833 F1800
G1 X111.886 Y106.862 Z4.80 E76.29761 F1800
G1 X110.888 Y108.355 Z4.80 E76.35690 F1800
G1 X109.705 Y109.705 Z4.80 E76.41618 F1800
G1 X108.355 Y110.888 Z4.80 E76.47547 F1800
G1 X106.862 Y111.886 Z4.80 E76.53475 F1800
G1 X105.252 Y112.680 Z4.80 E76.59404 F1800
G1 X103.552 Y113.257 Z4.80 E76.65332 F1800
G1 X101.791 Y113.607 Z4.80 E76.71261 F1800
G1 X100.000 Y113.724 Z4.80 E76.77189 F1800
G1 X98.209 Y113.607 Z4.80 E76.83117 F1800
G1 X96.448 Y113.257 Z4.80 E76.89046 F1800
G1 X94.748 Y112.680 Z4.80 E76.94974 F1800
G1 X93.138 Y111.886 Z4.80 E77.00903 F1800
G1 X91.645 Y110.888 Z4.80 E77.06831 F1800
G1 X90.295 Y109.705 Z4.80 E77.12760 F1800
G1 X89.112 Y108.355 Z4.80 E77.18688 F1800
G1 X88.114 Y106.862 Z4.80 E77.24617 F1800
G1 X87.320 Y105.252 Z4.80 E77.30545 F1800
G1 X86.743 Y103.552 Z4.80 E77.36473 F1800
G1 X86.393 Y101.791 Z4.80 E77.42402 F1800
G1 X86.276 Y100.000 Z4.80 E77.48330 F1800
G1 X86.393 Y98.209 Z4.80 E77.54259 F1800
G1 X86.743 Y96.448 Z4.80 E77.60187 F1800
G1 X87.320 Y94.748 Z4.80 E77.66116 F1800
G1 X88.114 Y93.138 Z4.80 E77.72044 F1800
G1 X89.112 Y91.645 Z4.80 E77.77973 F1800
G1 X90.295 Y90.295 Z4.80 E77.83901 F1800
G1 X91.645 Y89.112 Z4.80 E77.89830 F1800
G1 X93.138 Y88.114 Z4.80 E77.95758 F1800
G1 X94.748 Y87.320 Z4.80 E78.01686 F1800
G1 X96.448 Y86.743 Z4.80 E78.07615 F1800
G1 X98.209 Y86.393 Z4.80 E78.13543 F1800
G1 X100.000 Y86.276 Z4.80 E78.19472 F1800
G1 X101.791 Y86.393 Z4.80 E78.25400 F1800
G1 X103.552 Y86.743 Z4.80 E78.31329 F1800
G1 X105.252 Y87.320 Z4.80 E78.37257 F1800
G1 X106.862 Y88.114 Z4.80 E78.43186 F1800
G1 X108.355 Y89.112 Z4.80 E78.49114 F1800
G1 X109.705 Y90.295 Z4.80 E78.55042 F1800
G1 X110.888 Y91.645 Z4.80 E78.60971 F1800
G1 X111.886 Y93.138 Z4.80 E78.66899 F1800
G1 X112.680 Y94.748 Z4.80 E78.72828 F1800
G1 X113.257 Y96.448 Z4.80 E78.78756 F1800
G1 X113.607 Y98.209 Z4.80 E78.84685 F1800
G1 X113.724 Y100.000 Z4.80 E78.90613 F1800
G1 X113.371 Y101.760 Z5.00 E78.96439 F1800
G1 X113.027 Y103.491 Z5.00 E79.02265 F1800
G1 X112.460 Y105.161 Z5.00 E79.08090 F1800
G1 X111.680 Y106.743 Z5.00 E79.13916 F1800
G1 X110.699 Y108.210 Z5.00 E79.19742 F1800
G1 X109.536 Y109.536 Z5.00 E79.25567 F1800
G1 X108.210 Y110.699 Z5.00 E79.31393 F1800
G1 X106.743 Y111.680 Z5.00 E79.37219 F1800
G1 X105.161 Y112.460 Z5.00 E79.43044 F1800
G1 X103.491 Y113.027 Z5.00 E79.48870 F1800
G1 X101.760 Y113.371 Z5.00 E79.54696 F1800
G1 X100.000 Y113.486 Z5.00 E79.60522 F1800
G1 X98.240 Y113.371 Z5.00 E79.66347 F1800
G1 X96.509 Y113.027 Z5.00 E79.72173 F1800
G1 X94.839 Y112.460 Z5.00 E79.77999 F1800
G1 X93.257 Y111.680 Z5.00 E79.83824 F1800
G1 X91.790 Y110.699 Z5.00 E79.89650 F1800
G1 X90.464 Y109.536 Z5.00 E79.95476 F1800
G1 X89.301 Y108.210 Z5.00 E80.01301 F1800
G1 X88.320 Y106.743 Z5.00 E80.07127 F1800
G1 X87.540 Y105.161 Z5.00 E80.12953 F1800
G1 X86.973 Y103.491 Z5.00 E80.18779 F1800
G1 X86.629 Y101.760 Z5.00 E80.24604 F1800
G1 X86.514 Y100.000 Z5.00 E80.30430 F1800
G1 X86.629 Y98.240 Z5.00 E80.36256 F1800
G1 X86.973 Y96.509 Z5.00 E80.42081 F1800
G1 X87.540 Y94.839 Z5.00 E80.47907 F1800
G1 X88.320 Y93.257 Z5.00 E80.53733 F1800
G1 X89.301 Y91.790 Z5.00 E80.59559 F1800
G1 X90.464 Y90.464 Z5.00 E80.65384 F1800
G1 X91.790 Y89.301 Z5.00 E80.71210 F1800
G1 X93.257 Y88.320 Z5.00 E80.77036 F1800
G1 X94.839 Y87.540 Z5.00 E80.82861 F1800
G1 X96.509 Y86.973 Z5.00 E80.88687 F1800
G1 X98.240 Y86.629 Z5.00 E80.94513 F1800
G1 X100.000 Y86.514 Z5.00 E81.00338 F1800
G1 X101.760 Y86.629 Z5.00 E81.06164 F1800
G1 X103.491 Y86.973 Z5.00 E81.11990 F1800
G1 X105.161 Y87.540 Z5.00 E81.17816 F1800
G1 X106.743 Y88.320 Z5.00 E81.23641 F1800
G1 X108.210 Y89.301 Z5.00 E81.29467 F1800
G1 X109.536 Y90.464 Z5.00 E81.35293 F1800
G1 X110.699 Y91.790 Z5.00 E81.41118 F1800
G1 X111.680 Y93.257 Z5.00 E81.46944 F1800
G1 X112.460 Y94.839 Z5.00 E81.52770 F1800
G1 X113.027 Y96.509 Z5.00 E81.58596 F1800
G1 X113.371 Y98.240 Z5.00 E81.64421 F1800
G1 X113.486 Y100.000 Z5.00 E81.70247 F1800
G1 X113.177 Y101.735 Z5.20 E81.75988 F1800
G1 X112.838 Y103.440 Z5.20 E81.81729 F1800
G1 X112.279 Y105.086 Z5.20 E81.87470 F1800
G1 X111.510 Y106.645 Z5.20 E81.93211 F1800
G1 X110.544 Y108.091 Z5.20 E81.98952 F1800
G1 X109.398 Y109.398 Z5.20 E82.04693 F1800
G1 X108.091 Y110.544 Z5.20 E82.10434 F1800
G1 X106.645 Y111.510 Z5.20 E82.16176 F1800
G1 X105.086 Y112.279 Z5.20 E82.21917 F1800
G1 X103.440 Y112.838 Z5.20 E82.27658 F1800
G1 X101.735 Y113.177 Z5.20 E82.33399 F1800
G1 X100.000 Y113.290 Z5.20 E82.39140 F1800
G1 X98.265 Y113.177 Z5.20 E82.44881 F1800
G1 X96.560 Y112.838 Z5.20 E82.50622 F1800
G1 X94.914 Y112.279 Z5.20 E82.56363 F1800
G1 X93.355 Y111.510 Z5.20 E82.62104 F1800
G1 X91.909 Y110.544 Z5.20 E82.67845 F1800
G1 X90.602 Y109.398 Z5.20 E82.73586 F1800
G1 X89.456 Y108.091 Z5.20 E82.79327 F1800
G1 X88.490 Y106.645 Z5.20 E82.85069 F1800
G1 X87.721 Y105.086 Z5.20 E82.90810 F1800
G1 X87.162 Y103.440 Z5.20 E82.96551 F1800
G1 X86.823 Y101.735 Z5.20 E83.02292 F1800
G1 X86.710 Y100.000 Z5.20 E83.08033 F1800
G1 X86.823 Y98.265 Z5.20 E83.13774 F1800
G1 X87.162 Y96.560 Z5.20 E83.19515 F1800
G1 X87.721 Y94.914 Z5.20 E83.25256 F1800
G1 X88.490 Y93.355 Z5.20 E83.30997 F1800
G1 X89.456 Y91.909 Z5.20 E83.36738 F1800
G1 X90.602 Y90.602 Z5.20 E83.42479 F1800
G1 X91.909 Y89.456 Z5.20 E83.48220 F1800
G1 X93.355 Y88.490 Z5.20 E83.53962 F1800
G1 X94.914 Y87.721 Z5.20 E83.59703 F1800
G1 X96.560 Y87.162 Z5.20 E83.65444 F1800
G1 X98.265 Y86.823 Z5.20 E83.71185 F1800
G1 X100.000 Y86.710 Z5.20 E83.76926 F1800
G1 X101.735 Y86.823 Z5.20 E83.82667 F1800
G1 X103.440 Y87.162 Z5.20 E83.88408 F1800
G1 X105.086 Y87.721 Z5.20 E83.94149 F1800
G1 X106.645 Y88.490 Z5.20 E83.99890 F1800
G1 X108.091 Y89.456 Z5.20 E84.05631 F1800
G1 X109.398 Y90.602 Z5.20 E84.11372 F1800
G1 X110.544 Y91.909 Z5.20 E84.17113 F1800
G1 X111.510 Y93.355 Z5.20 E84.22855 F1800
G1 X112.279 Y94.914 Z5.20 E84.28596 F1800
G1 X112.838 Y96.560 Z5.20 E84.34337 F1800
G1 X113.177 Y98.265 Z5.20 E84.40078 F1800
G1 X113.290 Y100.000 Z5.20 E84.45819 F1800
G1 X113.030 Y101.715 Z5.40 E84.51496 F1800
G1 X112.694 Y103.401 Z5.40 E84.57173 F1800
G1 X112.142 Y105.029 Z5.40 E84.62850 F1800
G1 X111.381 Y106.571 Z5.40 E84.68527 F1800
G1 X110.426 Y108.000 Z5.40 E84.74203 F1800
G1 X109.293 Y109.293 Z5.40 E84.79880 F1800
G1 X108.000 Y110.426 Z5.40 E84.85557 F1800
G1 X106.571 Y111.381 Z5.40 E84.91234 F1800
G1 X105.029 Y112.142 Z5.40 E84.96911 F1800
G1 X103.401 Y112.694 Z5.40 E85.02588 F1800
G1 X101.715 Y113.030 Z5.40 E85.08265 F1800
G1 X100.000 Y113.142 Z5.40 E85.13942 F1800
G1 X98.285 Y113.030 Z5.40 E85.19619 F1800
G1 X96.599 Y112.694 Z5.40 E85.25296 F1800
G1 X94.971 Y112.142 Z5.40 E85.30973 F1800
G1 X93.429 Y111.381 Z5.40 E85.36650 F1800
G1 X92.000 Y110.426 Z5.40 E85.42327 F1800
G1 X90.707 Y109.293 Z5.40 E85.48003 F1800
G1 X89.574 Y108.000 Z5.40 E85.53680 F1800
G1 X88.619 Y106.571 Z5.40 E85.59357 F1800
G1 X87.858 Y105.029 Z5.40 E85.65034 F1800
G1 X87.306 Y103.401 Z5.40 E85.70711 F1800
G1 X86.970 Y101.715 Z5.40 E85.76388 F1800
G1 X86.858 Y100.000 Z5.40 E85.82065 F1800
G1 X86.970 Y98.285 Z5.40 E85.87742 F1800
G1 X87.306 Y96.599 Z5.40 E85.93419 F1800
G1 X87.858 Y94.971 Z5.40 E85.99096 F1800
G1 X88.619 Y93.429 Z5.40 E86.04773 F1800
G1 X89.574 Y92.000 Z5.40 E86.10450 F1800
G1 X90.707 Y90.707 Z5.40 E86.16127 F1800
G1 X92.000 Y89.574 Z5.40 E86.21803 F1800
G1 X93.429 Y88.619 Z5.40 E86.27480 F1800
G1 X94.971 Y87.858 Z5.40 E86.33157 F1800
G1 X96.599 Y87.306 Z5.40 E86.38834 F1800
G1 X98.285 Y86.970 Z5.40 E86.44511 F1800
G1 X100.000 Y86.858 Z5.40 E86.50188 F1800
G1 X101.715 Y86.970 Z5.40 E86.55865 F1800
G1 X103.401 Y87.306 Z5.40 E86.61542 F1800
G1 X105.029 Y87.858 Z5.40 E86.67219 F1800
G1 X106.571 Y88.619 Z5.40 E86.72896 F1800
G1 X108.000 Y89.574 Z5.40 E86.78573 F1800
G1 X109.293 Y90.707 Z5.40 E86.84250 F1800
G1 X110.426 Y92.000 Z5.40 E86.89927 F1800
G1 X111.381 Y93.429 Z5.40 E86.95603 F1800
G1 X112.142 Y94.971 Z5.40 E87.01280 F1800
G1 X112.694 Y96.599 Z5.40 E87.06957 F1800
G1 X113.030 Y98.285 Z5.40 E87.12634 F1800
G1 X113.142 Y100.000 Z5.40 E87.18311 F1800
G1 X112.933 Y101.703 Z5.60 E87.23946 F1800
G1 X112.600 Y103.376 Z5.60 E87.29581 F1800
G1 X112.052 Y104.992 Z5.60 E87.35216 F1800
G1 X111.297 Y106.522 Z5.60 E87.40851 F1800
G1 X110.349 Y107.941 Z5.60 E87.46486 F1800
G1 X109.224 Y109.224 Z5.60 E87.52121 F1800
G1 X107.941 Y110.349 Z5.60 E87.57756 F1800
G1 X106.522 Y111.297 Z5.60 E87.63391 F1800
G1 X104.992 Y112.052 Z5.60 E87.69026 F1800
G1 X103.376 Y112.600 Z5.60 E87.74661 F1800
G1 X101.703 Y112.933 Z5.60 E87.80296 F1800
G1 X100.000 Y113.045 Z5.60 E87.85931 F1800
G1 X98.297 Y112.933 Z5.60 E87.91566 F1800
G1 X96.624 Y112.600 Z5.60 E87.97201 F1800
G1 X95.008 Y112.052 Z5.60 E88.02836 F1800
G1 X93.478 Y111.297 Z5.60 E88.08471 F1800
G1 X92.059 Y110.349 Z5.60 E88.14106 F1800
G1 X90.776 Y109.224 Z5.60 E88.19741 F1800
G1 X89.651 Y107.941 Z5.60 E88.25376 F1800
G1 X88.703 Y106.522 Z5.60 E88.31011 F1800
G1 X87.948 Y104.992 Z5.60 E88.36646 F1800
G1 X87.400 Y103.376 Z5.60 E88.42281 F1800
G1 X87.067 Y101.703 Z5.60 E88.47916 F1800
G1 X86.955 Y100.000 Z5.60 E88.53551 F1800
G1 X87.067 Y98.297 Z5.60 E88.59186 F1800
G1 X87.400 Y96.624 Z5.60 E88.64821 F1800
G1 X87.948 Y95.008 Z5.60 E88.70456 F1800
G1 X88.703 Y93.478 Z5.60 E88.76091 F1800
G1 X89.651 Y92.059 Z5.60 E88.81726 F1800
G1 X90.776 Y90.776 Z5.60 E88.87361 F1800
G1 X92.059 Y89.651 Z5.60 E88.92996 F1800
G1 X93.478 Y88.703 Z5.60 E88.98631 F1800
G1 X95.008 Y87.948 Z5.60 E89.04267 F1800
G1 X96.624 Y87.400 Z5.60 E89.09902 F1800
G1 X98.297 Y87.067 Z5.60 E89.15537 F1800
G1 X100.000 Y86.955 Z5.60 E89.21172 F1800
G1 X101.703 Y87.067 Z5.60 E89.26807 F1800
G1 X103.376 Y87.400 Z5.60 E89.32442 F1800
G1 X104.992 Y87.948 Z5.60 E89.38077 F1800
G1 X106.522 Y88.703 Z5.60 E89.43712 F1800
G1 X107.941 Y89.651 Z5.60 E89.49347 F1800
G1 X109.224 Y90.776 Z5.60 E89.54982 F1800
G1 X110.349 Y92.059 Z5.60 E89.60617 F1800
G1 X111.297 Y93.478 Z5.60 E89.66252 F1800
G1 X112.052 Y95.008 Z5.60 E89.71887 F1800
G1 X112.600 Y96.624 Z5.60 E89.77522 F1800
G1 X112.933 Y98.297 Z5.60 E89.83157 F1800
G1 X113.045 Y100.000 Z5.60 E89.88792 F1800
G1 X112.891 Y101.697 Z5.80 E89.94408 F1800
G1 X112.559 Y103.365 Z5.80 E90.00025 F1800
G1 X112.012 Y104.976 Z5.80 E90.05641 F1800
G1 X111.260 Y106.501 Z5.80 E90.11258 F1800
G1 X110.315 Y107.915 Z5.80 E90.16874 F1800
G1 X109.194 Y109.194 Z5.80 E90.22491 F1800
G1 X107.915 Y110.315 Z5.80 E90.28107 F1800
G1 X106.501 Y111.260 Z5.80 E90.33724 F1800
G1 X104.976 Y112.012 Z5.80 E90.39340 F1800
G1 X103.365 Y112.559 Z5.80 E90.44957 F1800
G1 X101.697 Y112.891 Z5.80 E90.50573 F1800
G1 X100.000 Y113.002 Z5.80 E90.56190 F1800
G1 X98.303 Y112.891 Z5.80 E90.61806 F1800
G1 X96.635 Y112.559 Z5.80 E90.67423 F1800
G1 X95.024 Y112.012 Z5.80 E90.73039 F1800
G1 X93.499 Y111.260 Z5.80 E90.78656 F1800
G1 X92.085 Y110.315 Z5.80 E90.84272 F1800
G1 X90.806 Y109.194 Z5.80 E90.89889 F1800
G1 X89.685 Y107.915 Z5.80 E90.95505 F1800
G1 X88.740 Y106.501 Z5.80 E91.01122 F1800
G1 X87.988 Y104.976 Z5.80 E91.06738 F1800
G1 X87.441 Y103.365 Z5.80 E91.12355 F1800
G1 X87.109 Y101.697 Z5.80 E91.17971 F1800
G1 X86.998 Y100.000 Z5.80 E91.23588 F1800
G1 X87.109 Y98.303 Z5.80 E91.29204 F1800
G1 X87.441 Y96.635 Z5.80 E91.34821 F1800
G1 X87.988 Y95.024 Z5.80 E91.40437 F1800
G1 X88.740 Y93.499 Z5.80 E91.46054 F1800
G1 X89.685 Y92.085 Z5.80 E91.51670 F1800
G1 X90.806 Y90.806 Z5.80 E91.57287 F1800
G1 X92.085 Y89.685 Z5.80 E91.62903 F1800
G1 X93.499 Y88.740 Z5.80 E91.68520 F1800
G1 X95.024 Y87.988 Z5.80 E91.74136 F1800
G1 X96.635 Y87.441 Z5.80 E91.79753 F1800
G1 X98.303 Y87.109 Z5.80 E91.85369 F1800
G1 X100.000 Y86.998 Z5.80 E91.90986 F1800
G1 X101.697 Y87.109 Z5.80 E91.96602 F1800
G1 X103.365 Y87.441 Z5.80 E92.02219 F1800
G1 X104.976 Y87.988 Z5.80 E92.07835 F1800
G1 X106.501 Y88.740 Z5.80 E92.13452 F1800
G1 X107.915 Y89.685 Z5.80 E92.19068 F1800
G1 X109.194 Y90.806 Z5.80 E92.24685 F1800
G1 X110.315 Y92.085 Z5.80 E92.30301 F1800
G1 X111.260 Y93.499 Z5.80 E92.35918 F1800
G1 X112.012 Y95.024 Z5.80 E92.41534 F1800
G1 X112.559 Y96.635 Z5.80 E92.47151 F1800
G1 X112.891 Y98.303 Z5.80 E92.52767 F1800
G1 X113.002 Y100.000 Z5.80 E92.58384 F1800
G1 X112.903 Y101.699 Z6.00 E92.64006 F1800
G1 X112.571 Y103.368 Z6.00 E92.69627 F1800
G1 X112.024 Y104.980 Z6.00 E92.75249 F1800
G1 X111.271 Y106.507 Z6.00 E92.80871 F1800
G1 X110.325 Y107.923 Z6.00 E92.86493 F1800
G1 X109.203 Y109.203 Z6.00 E92.92115 F1800
G1 X107.923 Y110.325 Z6.00 E92.97737 F1800
G1 X106.507 Y111.271 Z6.00 E93.03359 F1800
G1 X104.980 Y112.024 Z6.00 E93.08981 F1800
G1 X103.368 Y112.571 Z6.00 E93.14603 F1800
G1 X101.699 Y112.903 Z6.00 E93.20225 F1800
G1 X100.000 Y113.015 Z6.00 E93.25847 F1800
G1 X98.301 Y112.903 Z6.00 E93.31468 F1800
G1 X96.632 Y112.571 Z6.00 E93.37090 F1800
G1 X95.020 Y112.024 Z6.00 E93.42712 F1800
G1 X93.493 Y111.271 Z6.00 E93.48334 F1800
G1 X92.077 Y110.325 Z6.00 E93.53956 F1800
G1 X90.797 Y109.203 Z6.00 E93.59578 F1800
G1 X89.675 Y107.923 Z6.00 E93.65200 F1800
G1 X88.729 Y106.507 Z6.00 E93.70822 F1800
G1 X87.976 Y104.980 Z6.00 E93.76444 F1800
G1 X87.429 Y103.368 Z6.00 E93.82066 F1800
G1 X87.097 Y101.699 Z6.00 E93.87688 F1800
G1 X86.985 Y100.000 Z6.00 E93.93309 F1800
G1 X87.097 Y98.301 Z6.00 E93.98931 F1800
G1 X87.429 Y96.632 Z6.00 E94.04553 F1800
G1 X87.976 Y95.020 Z6.00 E94.10175 F1800
G1 X88.729 Y93.493 Z6.00 E94.15797 F1800
G1 X89.675 Y92.077 Z6.00 E94.21419 F1800
G1 X90.797 Y90.797 Z6.00 E94.27041 F1800
G1 X92.077 Y89.675 Z6.00 E94.32663 F1800
G1 X93.493 Y88.729 Z6.00 E94.38285 F1800
G1 X95.020 Y87.976 Z6.00 E94.43907 F1800
G1 X96.632 Y87.429 Z6.00 E94.49529 F1800
G1 X98.301 Y87.097 Z6.00 E94.55150 F1800
G1 X100.000 Y86.985 Z6.00 E94.60772 F1800
G1 X101.699 Y87.097 Z6.00 E94.66394 F1800
G1 X103.368 Y87.429 Z6.00 E94.72016 F1800
G1 X104.980 Y87.976 Z6.00 E94.77638 F1800
G1 X106.507 Y88.729 Z6.00 E94.83260 F1800
G1 X107.923 Y89.675 Z6.00 E94.88882 F1800
G1 X109.203 Y90.797 Z6.00 E94.94504 F1800
G1 X110.325 Y92.077 Z6.00 E95.00126 F1800
G1 X111.271 Y93.493 Z6.00 E95.05748 F1800
G1 X112.024 Y95.020 Z6.00 E95.11369 F1800
G1 X112.571 Y96.632 Z6.00 E95.16991 F1800
G1 X112.903 Y98.301 Z6.00 E95.22613 F1800
G1 X113.015 Y100.000 Z6.00 E95.28235 F1800
G1 X112.970 Y101.708 Z6.20 E95.33886 F1800
G1 X112.636 Y103.386 Z6.20 E95.39537 F1800
G1 X112.086 Y105.006 Z6.20 E95.45188 F1800
G1 X111.329 Y106.541 Z6.20 E95.50840 F1800
G1 X110.379 Y107.964 Z6.20 E95.56491 F1800
G1 X109.250 Y109.250 Z6.20 E95.62142 F1800
G1 X107.964 Y110.379 Z6.20 E95.67793 F1800
G1 X106.541 Y111.329 Z6.20 E95.73444 F1800
G1 X105.006 Y112.086 Z6.20 E95.79095 F1800
G1 X103.386 Y112.636 Z6.20 E95.84746 F1800
G1 X101.708 Y112.970 Z6.20 E95.90397 F1800
G1 X100.000 Y113.082 Z6.20 E95.96048 F1800
G1 X98.292 Y112.970 Z6.20 E96.01699 F1800
G1 X96.614 Y112.636 Z6.20 E96.07350 F1800
G1 X94.994 Y112.086 Z6.20 E96.13001 F1800
G1 X93.459 Y111.329 Z6.20 E96.18653 F1800
G1 X92.036 Y110.379 Z6.20 E96.24304 F1800
G1 X90.750 Y109.250 Z6.20 E96.29955 F1800
G1 X89.621 Y107.964 Z6.20 E96.35606 F1800
G1 X88.671 Y106.541 Z6.20 E96.41257 F1800
G1 X87.914 Y105.006 Z6.20 E96.46908 F1800
G1 X87.364 Y103.386 Z6.20 E96.52559 F1800
G1 X87.030 Y101.708 Z6.20 E96.58210 F1800
G1 X86.918 Y100.000 Z6.20 E96.63861 F1800
G1 X87.030 Y98.292 Z6.20 E96.69512 F1800
G1 X87.364 Y96.614 Z6.20 E96.75163 F1800
G1 X87.914 Y94.994 Z6.20 E96.80814 F1800
G1 X88.671 Y93.459 Z6.20 E96.86466 F1800
G1 X89.621 Y92.036 Z6.20 E96.92117 F1800
G1 X90.750 Y90.750 Z6.20 E96.97768 F1800
G1 X92.036 Y89.621 Z6.20 E97.03419 F1800
G1 X93.459 Y88.671 Z6.20 E97.09070 F1800
G1 X94.994 Y87.914 Z6.20 E97.14721 F1800
G1 X96.614 Y87.364 Z6.20 E97.20372 F1800
G1 X98.292 Y87.030 Z6.20 E97.26023 F1800
G1 X100.000 Y86.918 Z6.20 E97.31674 F1800
G1 X101.708 Y87.030 Z6.20 E97.37325 F1800
G1 X103.386 Y87.364 Z6.20 E97.42976 F1800
G1 X105.006 Y87.914 Z6.20 E97.48627 F1800
G1 X106.541 Y88.671 Z6.20 E97.54279 F1800
G1 X107.964 Y89.621 Z6.20 E97.59930 F1800
G1 X109.250 Y90.750 Z6.20 E97.65581 F1800
G1 X110.379 Y92.036 Z6.20 E97.71232 F1800
G1 X111.329 Y93.459 Z6.20 E97.76883 F1800
G1 X112.086 Y94.994 Z6.20 E97.82534 F1800
G1 X112.636 Y96.614 Z6.20 E97.88185 F1800
G1 X112.970 Y98.292 Z6.20 E97.93836 F1800
G1 X113.082 Y100.000 Z6.20 E97.99487 F1800
G1 X113.090 Y101.723 Z6.40 E98.05190 F1800
G1 X112.753 Y103.417 Z6.40 E98.10894 F1800
G1 X112.198 Y105.053 Z6.40 E98.16597 F1800
G1 X111.434 Y106.601 Z6.40 E98.22300 F1800
G1 X110.475 Y108.037 Z6.40 E98.28003 F1800
G1 X109.336 Y109.336 Z6.40 E98.33707 F1800
G1 X108.037 Y110.475 Z6.40 E98.39410 F1800
G1 X106.601 Y111.434 Z6.40 E98.45113 F1800
G1 X105.053 Y112.198 Z6.40 E98.50816 F1800
G1 X103.417 Y112.753 Z6.40 E98.56519 F1800
G1 X101.723 Y113.090 Z6.40 E98.62223 F1800
G1 X100.000 Y113.203 Z6.40 E98.67926 F1800
G1 X98.277 Y113.090 Z6.40 E98.73629 F1800
G1 X96.583 Y112.753 Z6.40 E98.79332 F1800
G1 X94.947 Y112.198 Z6.40 E98.85036 F1800
G1 X93.399 Y111.434 Z6.40 E98.90739 F1800
G1 X91.963 Y110.475 Z6.40 E98.96442 F1800
G1 X90.664 Y109.336 Z6.40 E99.02145 F1800
G1 X89.525 Y108.037 Z6.40 E99.07848 F1800
G1 X88.566 Y106.601 Z6.40 E99.13552 F1800
G1 X87.802 Y105.053 Z6.40 E99.19255 F1800
G1 X87.247 Y103.417 Z6.40 E99.24958 F1800
G1 X86.910 Y101.723 Z6.40 E99.30661 F1800
G1 X86.797 Y100.000 Z6.40 E99.36364 F1800
G1 X86.910 Y98.277 Z6.40 E99.42068 F1800
G1 X87.247 Y96.583 Z6.40 E99.47771 F1800
G1 X87.802 Y94.947 Z6.40 E99.53474 F1800
G1 X88.566 Y93.399 Z6.40 E99.59177 F1800
G1 X89.525 Y91.963 Z6.40 E99.64881 F1800
G1 X90.664 Y90.664 Z6.40 E99.70584 F1800
G1 X91.963 Y89.525 Z6.40 E99.76287 F1800
G1 X93.399 Y88.566 Z6.40 E99.81990 F1800
G1 X94.947 Y87.802 Z6.40 E99.87693 F1800
G1 X96.583 Y87.247 Z6.40 E99.93397 F1800
G1 X98.277 Y86.910 Z6.40 E99.99100 F1800
G1 X100.000 Y86.797 Z6.40 E100.04803 F1800
G1 X101.723 Y86.910 Z6.40 E100.10506 F1800
G1 X103.417 Y87.247 Z6.40 E100.16210 F1800
G1 X105.053 Y87.802 Z6.40 E100.21913 F1800
G1 X106.601 Y88.566 Z6.40 E100.27616 F1800
G1 X108.037 Y89.525 Z6.40 E100.33319 F1800
G1 X109.336 Y90.664 Z6.40 E100.39022 F1800
G1 X110.475 Y91.963 Z6.40 E100.44726 F1800
G1 X111.434 Y93.399 Z6.40 E100.50429 F1800
G1 X112.198 Y94.947 Z6.40 E100.56132 F1800
G1 X112.753 Y96.583 Z6.40 E100.61835 F1800
G1 X113.090 Y98.277 Z6.40 E100.67539 F1800
G1 X113.203 Y100.000 Z6.40 E100.73242 F1800
G1 X113.259 Y101.746 Z6.60 E100.79019 F1800
G1 X112.918 Y103.461 Z6.60 E100.84795 F1800
G1 X112.355 Y105.118 Z6.60 E100.90572 F1800
G1 X111.582 Y106.687 Z6.60 E100.96349 F1800
G1 X110.610 Y108.141 Z6.60 E101.02126 F1800
G1 X109.456 Y109.456 Z6.60 E101.07903 F1800
G1 X108.141 Y110.610 Z6.60 E101.13680 F1800
G1 X106.687 Y111.582 Z6.60 E101.19457 F1800
G1 X105.118 Y112.355 Z6.60 E101.25234 F1800
G1 X103.461 Y112.918 Z6.60 E101.31010 F1800
G1 X101.746 Y113.259 Z6.60 E101.36787 F1800
G1 X100.000 Y113.373 Z6.60 E101.42564 F1800
G1 X98.254 Y113.259 Z6.60 E101.48341 F1800
G1 X96.539 Y112.918 Z6.60 E101.54118 F1800
G1 X94.882 Y112.355 Z6.60 E101.59895 F1800
G1 X93.313 Y111.582 Z6.60 E101.65672 F1800
G1 X91.859 Y110.610 Z6.60 E101.71449 F1800
G1 X90.544 Y109.456 Z6.60 E101.77225 F1800
G1 X89.390 Y108.141 Z6.60 E101.83002 F1800
G1 X88.418 Y106.687 Z6.60 E101.88779 F1800
G1 X87.645 Y105.118 Z6.60 E101.94556 F1800
G1 X87.082 Y103.461 Z6.60 E102.00333 F1800
G1 X86.741 Y101.746 Z6.60 E102.06110 F1800
G1 X86.627 Y100.000 Z6.60 E102.11887 F1800
G1 X86.741 Y98.254 Z6.60 E102.17663 F1800
G1 X87.082 Y96.539 Z6.60 E102.23440 F1800
G1 X87.645 Y94.882 Z6.60 E102.29217 F1800
G1 X88.418 Y93.313 Z6.60 E102.34994 F1800
G1 X89.390 Y91.859 Z6.60 E102.40771 F1800
G1 X90.544 Y90.544 Z6.60 E102.46548 F1800
G1 X91.859 Y89.390 Z6.60 E102.52325 F1800
G1 X93.313 Y88.418 Z6.60 E102.58102 F1800
G1 X94.882 Y87.645 Z6.60 E102.63878 F1800
G1 X96.539 Y87.082 Z6.60 E102.69655 F1800
G1 X98.254 Y86.741 Z6.60 E102.75432 F1800
G1 X100.000 Y86.627 Z6.60 E102.81209 F1800
G1 X101.746 Y86.741 Z6.60 E102.86986 F1800
G1 X103.461 Y87.082 Z6.60 E102.92763 F1800
G1 X105.118 Y87.645 Z6.60 E102.98540 F1800
G1 X106.687 Y88.418 Z6.60 E103.04316 F1800
G1 X108.141 Y89.390 Z6.60 E103.10093 F1800
G1 X109.456 Y90.544 Z6.60 E103.15870 F1800
G1 X110.610 Y91.859 Z6.60 E103.21647 F1800
G1 X111.582 Y93.313 Z6.60 E103.27424 F1800
G1 X112.355 Y94.882 Z6.60 E103.33201 F1800
G1 X112.918 Y96.539 Z6.60 E103.38978 F1800
G1 X113.259 Y98.254 Z6.60 E103.44755 F1800
G1 X113.373 Y100.000 Z6.60 E103.50531 F1800
G1 X113.473 Y101.774 Z6.80 E103.56401 F1800
G1 X113.126 Y103.517 Z6.80 E103.62271 F1800
G1 X112.555 Y105.200 Z6.80 E103.68141 F1800
G1 X111.768 Y106.794 Z6.80 E103.74011 F1800
G1 X110.781 Y108.272 Z6.80 E103.79881 F1800
G1 X109.609 Y109.609 Z6.80 E103.85751 F1800
G1 X108.272 Y110.781 Z6.80 E103.91621 F1800
G1 X106.794 Y111.768 Z6.80 E103.97491 F1800
G1 X105.200 Y112.555 Z6.80 E104.03361 F1800
G1 X103.517 Y113.126 Z6.80 E104.09231 F1800
G1 X101.774 Y113.473 Z6.80 E104.15101 F1800
G1 X100.000 Y113.589 Z6.80 E104.20971 F1800
G1 X98.226 Y113.473 Z6.80 E104.26841 F1800
G1 X96.483 Y113.126 Z6.80 E104.32711 F1800
G1 X94.800 Y112.555 Z6.80 E104.38581 F1800
G1 X93.206 Y111.768 Z6.80 E104.44451 F1800
G1 X91.728 Y110.781 Z6.80 E104.50321 F1800
G1 X90.391 Y109.609 Z6.80 E104.56191 F1800
G1 X89.219 Y108.272 Z6.80 E104.62061 F1800
G1 X88.232 Y106.794 Z6.80 E104.67931 F1800
G1 X87.445 Y105.200 Z6.80 E104.73801 F1800
G1 X86.874 Y103.517 Z6.80 E104.79671 F1800
G1 X86.527 Y101.774 Z6.80 E104.85541 F1800
G1 X86.411 Y100.000 Z6.80 E104.91411 F1800
G1 X86.527 Y98.226 Z6.80 E104.97281 F1800
G1 X86.874 Y96.483 Z6.80 E105.03151 F1800
G1 X87.445 Y94.800 Z6.80 E105.09021 F1800
G1 X88.232 Y93.206 Z6.80 E105.14891 F1800
G1 X89.219 Y91.728 Z6.80 E105.20761 F1800
G1 X90.391 Y90.391 Z6.80 E105.26631 F1800
G1 X91.728 Y89.219 Z6.80 E105.32501 F1800
G1 X93.206 Y88.232 Z6.80 E105.38371 F1800
G1 X94.800 Y87.445 Z6.80 E105.44241 F1800
G1 X96.483 Y86.874 Z6.80 E105.50111 F1800
G1 X98.226 Y86.527 Z6.80 E105.55981 F1800
G1 X100.000 Y86.411 Z6.80 E105.61851 F1800
G1 X101.774 Y86.527 Z6.80 E105.67721 F1800
G1 X103.517 Y86.874 Z6.80 E105.73591 F1800
G1 X105.200 Y87.445 Z6.80 E105.79461 F1800
G1 X106.794 Y88.232 Z6.80 E105.85331 F1800
G1 X108.272 Y89.219 Z6.80 E105.91201 F1800
G1 X109.609 Y90.391 Z6.80 E105.97071 F1800
G1 X110.781 Y91.728 Z6.80 E106.02941 F1800
G1 X111.768 Y93.206 Z6.80 E106.08811 F1800
G1 X112.555 Y94.800 Z6.80 E106.14681 F1800
G1 X113.126 Y96.483 Z6.80 E106.20551 F1800
G1 X113.473 Y98.226 Z6.80 E106.26421 F1800
G1 X113.589 Y100.000 Z6.80 E106.32291 F1800
G1 X113.725 Y101.807 Z7.00 E106.38271 F1800
G1 X113.372 Y103.583 Z7.00 E106.44251 F1800
G1 X112.790 Y105.298 Z7.00 E106.50231 F1800
G1 X111.989 Y106.922 Z7.00 E106.56211 F1800
G1 X110.983 Y108.427 Z7.00 E106.62191 F1800
G1 X109.789 Y109.789 Z7.00 E106.68171 F1800
G1 X108.427 Y110.983 Z7.00 E106.74151 F1800
G1 X106.922 Y111.989 Z7.00 E106.80131 F1800
G1 X105.298 Y112.790 Z7.00 E106.86111 F1800
G1 X103.583 Y113.372 Z7.00 E106.92091 F1800
G1 X101.807 Y113.725 Z7.00 E106.98071 F1800
G1 X100.000 Y113.844 Z7.00 E107.04051 F1800
G1 X98.193 Y113.725 Z7.00 E107.10031 F1800
G1 X96.417 Y113.372 Z7.00 E107.16011 F1800
G1 X94.702 Y112.790 Z7.00 E107.21991 F1800
G1 X93.078 Y111.989 Z7.00 E107.27971 F1800
G1 X91.573 Y110.983 Z7.00 E107.33951 F1800
G1 X90.211 Y109.789 Z7.00 E107.39931 F1800
G1 X89.017 Y108.427 Z7.00 E107.45911 F1800
G1 X88.011 Y106.922 Z7.00 E107.51891 F1800
G1 X87.210 Y105.298 Z7.00 E107.57871 F1800
G1 X86.628 Y103.583 Z7.00 E107.63851 F1800
G1 X86.275 Y101.807 Z7.00 E107.69831 F1800
G1 X86.156 Y100.000 Z7.00 E107.75811 F1800
G1 X86.275 Y98.193 Z7.00 E107.81791 F1800
G1 X86.628 Y96.417 Z7.00 E107.87771 F1800
G1 X87.210 Y94.702 Z7.00 E107.93751 F1800
G1 X88.011 Y93.078 Z7.00 E107.99731 F1800
G1 X89.017 Y91.573 Z7.00 E108.05711 F1800
G1 X90.211 Y90.211 Z7.00 E108.11691 F1800
G1 X91.573 Y89.017 Z7.00 E108.17671 F1800
G1 X93.078 Y88.011 Z7.00 E108.23651 F1800
G1 X94.702 Y87.210 Z7.00 E108.29631 F1800
G1 X96.417 Y86.628 Z7.00 E108.35611 F1800
G1 X98.193 Y86.275 Z7.00 E108.41591 F1800
G1 X100.000 Y86.156 Z7.00 E108.47571 F1800
G1 X101.807 Y86.275 Z7.00 E108.53551 F1800
G1 X103.583 Y86.628 Z7.00 E108.59531 F1800
G1 X105.298 Y87.210 Z7.00 E108.65511 F1800
G1 X106.922 Y88.011 Z7.00 E108.71491 F1800
G1 X108.427 Y89.017 Z7.00 E108.77471 F1800
G1 X109.789 Y90.211 Z7.00 E108.83451 F1800
G1 X110.983 Y91.573 Z7.00 E108.89431 F1800
G1 X111.989 Y93.078 Z7.00 E108.95411 F1800
G1 X112.790 Y94.702 Z7.00 E109.01391 F1800
G1 X113.372 Y96.417 Z7.00 E109.07371 F1800
G1 X113.725 Y98.193 Z7.00 E109.13351 F1800
G1 X113.844 Y100.000 Z7.00 E109.19331 F1800
G1 X114.009 Y101.844 Z7.20 E109.25435 F1800
G1 X113.649 Y103.657 Z7.20 E109.31539 F1800
G1 X113.055 Y105.407 Z7.20 E109.37643 F1800
G1 X112.237 Y107.065 Z7.20 E109.43747 F1800
G1 X111.210 Y108.602 Z7.20 E109.49851 F1800
G1 X109.992 Y109.992 Z7.20 E109.55955 F1800
G1 X108.602 Y111.210 Z7.20 E109.62058 F1800
G1 X107.065 Y112.237 Z7.20 E109.68162 F1800
G1 X105.407 Y113.055 Z7.20 E109.74266 F1800
G1 X103.657 Y113.649 Z7.20 E109.80370 F1800
G1 X101.844 Y114.009 Z7.20 E109.86474 F1800
G1 X100.000 Y114.130 Z7.20 E109.92578 F1800
G1 X98.156 Y114.009 Z7.20 E109.98682 F1800
G1 X96.343 Y113.649 Z7.20 E110.04786 F1800
G1 X94.593 Y113.055 Z7.20 E110.10889 F1800
G1 X92.935 Y112.237 Z7.20 E110.16993 F1800
G1 X91.398 Y111.210 Z7.20 E110.23097 F1800
G1 X90.008 Y109.992 Z7.20 E110.29201 F1800
G1 X88.790 Y108.602 Z7.20 E110.35305 F1800
G1 X87.763 Y107.065 Z7.20 E110.41409 F1800
G1 X86.945 Y105.407 Z7.20 E110.47513 F1800
G1 X86.351 Y103.657 Z7.20 E110.53616 F1800
G1 X85.991 Y101.844 Z7.20 E110.59720 F1800
G1 X85.870 Y100.000 Z7.20 E110.65824 F1800
G1 X85.991 Y98.156 Z7.20 E110.71928 F1800
G1 X86.351 Y96.343 Z7.20 E110.78032 F1800
G1 X86.945 Y94.593 Z7.20 E110.84136 F1800
G1 X87.763 Y92.935 Z7.20 E110.90240 F1800
G1 X88.790 Y91.398 Z7.20 E110.96344 F1800
G1 X90.008 Y90.008 Z7.20 E111.02447 F1800
G1 X91.398 Y88.790 Z7.20 E111.08551 F1800
G1 X92.935 Y87.763 Z7.20 E111.14655 F1800
G1 X94.593 Y86.945 Z7.20 E111.20759 F1800
G1 X96.343 Y86.351 Z7.20 E111.26863 F1800
G1 X98.156 Y85.991 Z7.20 E111.32967 F1800
G1 X100.000 Y85.870 Z7.20 E111.39071 F1800
G1 X101.844 Y85.991 Z7.20 E111.45174 F1800
G1 X103.657 Y86.351 Z7.20 E111.51278 F1800
G1 X105.407 Y86.945 Z7.20 E111.57382 F1800
G1 X107.065 Y87.763 Z7.20 E111.63486 F1800
G1 X108.602 Y88.790 Z7.20 E111.69590 F1800
G1 X109.992 Y90.008 Z7.20 E111.75694 F1800
G1 X111.210 Y91.398 Z7.20 E111.81798 F1800
G1 X112.237 Y92.935 Z7.20 E111.87902 F1800
G1 X113.055 Y94.593 Z7.20 E111.94005 F1800
G1 X113.649 Y96.343 Z7.20 E112.00109 F1800
G1 X114.009 Y98.156 Z7.20 E112.06213 F1800
G1 X114.130 Y100.000 Z7.20 E112.12317 F1800
G1 X114.318 Y101.885 Z7.40 E112.18555 F1800
G1 X113.949 Y103.738 Z7.40 E112.24793 F1800
G1 X113.342 Y105.526 Z7.40 E112.31031 F1800
G1 X112.506 Y107.221 Z7.40 E112.37270 F1800
G1 X111.457 Y108.791 Z7.40 E112.43508 F1800
G1 X110.211 Y110.211 Z7.40 E112.49746 F1800
G1 X108.791 Y111.457 Z7.40 E112.55984 F1800
G1 X107.221 Y112.506 Z7.40 E112.62222 F1800
G1 X105.526 Y113.342 Z7.40 E112.68460 F1800
G1 X103.738 Y113.949 Z7.40 E112.74698 F1800
G1 X101.885 Y114.318 Z7.40 E112.80937 F1800
G1 X100.000 Y114.441 Z7.40 E112.87175 F1800
G1 X98.115 Y114.318 Z7.40 E112.93413 F1800
G1 X96.262 Y113.949 Z7.40 E112.99651 F1800
G1 X94.474 Y113.342 Z7.40 E113.05889 F1800
G1 X92.779 Y112.506 Z7.40 E113.12127 F1800
G1 X91.209 Y111.457 Z7.40 E113.18365 F1800
G1 X89.789 Y110.211 Z7.40 E113.24603 F1800
G1 X88.543 Y108.791 Z7.40 E113.30842 F1800
G1 X87.494 Y107.221 Z7.40 E113.37080 F1800
G1 X86.658 Y105.526 Z7.40 E113.43318 F1800
G1 X86.051 Y103.738 Z7.40 E113.49556 F1800
G1 X85.682 Y101.885 Z7.40 E113.55794 F1800
G1 X85.559 Y100.000 Z7.40 E113.62032 F1800
G1 X85.682 Y98.115 Z7.40 E113.68270 F1800
G1 X86.051 Y96.262 Z7.40 E113.74509 F1800
G1 X86.658 Y94.474 Z7.40 E113.80747 F1800
G1 X87.494 Y92.779 Z7.40 E113.86985 F1800
G1 X88.543 Y91.209 Z7.40 E113.93223 F1800
G1 X89.789 Y89.789 Z7.40 E113.99461 F1800
G1 X91.209 Y88.543 Z7.40 E114.05699 F1800
G1 X92.779 Y87.494 Z7.40 E114.11937 F1800
G1 X94.474 Y86.658 Z7.40 E114.18176 F1800
G1 X96.262 Y86.051 Z7.40 E114.24414 F1800
G1 X98.115 Y85.682 Z7.40 E114.30652 F1800
G1 X100.000 Y85.559 Z7.40 E114.36890 F1800
G1 X101.885 Y85.682 Z7.40 E114.43128 F1800
G1 X103.738 Y86.051 Z7.40 E114.49366 F1800
G1 X105.526 Y86.658 Z7.40 E114.55604 F1800
G1 X107.221 Y87.494 Z7.40 E114.61842 F1800
G1 X108.791 Y88.543 Z7.40 E114.68081 F1800
G1 X110.211 Y89.789 Z7.40 E114.74319 F1800
G1 X111.457 Y91.209 Z7.40 E114.80557 F1800
G1 X112.506 Y92.779 Z7.40 E114.86795 F1800
G1 X113.342 Y94.474 Z7.40 E114.93033 F1800
G1 X113.949 Y96.262 Z7.40 E114.99271 F1800
G1 X114.318 Y98.115 Z7.40 E115.05509 F1800
G1 X114.441 Y100.000 Z7.40 E115.11748 F1800
G1 X114.641 Y101.928 Z7.60 E115.18127 F1800
G1 X114.264 Y103.822 Z7.60 E115.24506 F1800
G1 X113.643 Y105.651 Z7.60 E115.30885 F1800
G1 X112.789 Y107.384 Z7.60 E115.37264 F1800
G1 X111.716 Y108.990 Z7.60 E115.43643 F1800
G1 X110.442 Y110.442 Z7.60 E115.50022 F1800
G1 X108.990 Y111.716 Z7.60 E115.56401 F1800
G1 X107.384 Y112.789 Z7.60 E115.62780 F1800
G1 X105.651 Y113.643 Z7.60 E115.69159 F1800
G1 X103.822 Y114.264 Z7.60 E115.75539 F1800
G1 X101.928 Y114.641 Z7.60 E115.81918 F1800
G1 X100.000 Y114.767 Z7.60 E115.88297 F1800
G1 X98.072 Y114.641 Z7.60 E115.94676 F1800
G1 X96.178 Y114.264 Z7.60 E116.01055 F1800
G1 X94.349 Y113.643 Z7.60 E116.07434 F1800
G1 X92.616 Y112.789 Z7.60 E116.13813 F1800
G1 X91.010 Y111.716 Z7.60 E116.20192 F1800
G1 X89.558 Y110.442 Z7.60 E116.26571 F1800
G1 X88.284 Y108.990 Z7.60 E116.32950 F1800
G1 X87.211 Y107.384 Z7.60 E116.39330 F1800
G1 X86.357 Y105.651 Z7.60 E116.45709 F1800
G1 X85.736 Y103.822 Z7.60 E116.52088 F1800
G1 X85.359 Y101.928 Z7.60 E116.58467 F1800
G1 X85.233 Y100.000 Z7.60 E116.64846 F1800
G1 X85.359 Y98.072 Z7.60 E116.71225 F1800
G1 X85.736 Y96.178 Z7.60 E116.77604 F1800
G1 X86.357 Y94.349 Z7.60 E116.83983 F1800
G1 X87.211 Y92.616 Z7.60 E116.90362 F1800
G1 X88.284 Y91.010 Z7.60 E116.96741 F1800
G1 X89.558 Y89.558 Z7.60 E117.03121 F1800
G1 X91.010 Y88.284 Z7.60 E117.09500 F1800
G1 X92.616 Y87.211 Z7.60 E117.15879 F1800
G1 X94.349 Y86.357 Z7.60 E117.22258 F1800
G1 X96.178 Y85.736 Z7.60 E117.28637 F1800
G1 X98.072 Y85.359 Z7.60 E117.35016 F1800
G1 X100.000 Y85.233 Z7.60 E117.41395 F1800
G1 X101.928 Y85.359 Z7.60 E117.47774 F1800
G1 X103.822 Y85.736 Z7.60 E117.54153 F1800
G1 X105.651 Y86.357 Z7.60 E117.60532 F1800
G1 X107.384 Y87.211 Z7.60 E117.66911 F1800
G1 X108.990 Y88.284 Z7.60 E117.73291 F1800
G1 X110.442 Y89.558 Z7.60 E117.79670 F1800
G1 X111.716 Y91.010 Z7.60 E117.86049 F1800
G1 X112.789 Y92.616 Z7.60 E117.92428 F1800
G1 X113.643 Y94.349 Z7.60 E117.98807 F1800
G1 X114.264 Y96.178 Z7.60 E118.05186 F1800
G1 X114.641 Y98.072 Z7.60 E118.11565 F1800
G1 X114.767 Y100.000 Z7.60 E118.17944 F1800
G1 X114.971 Y101.971 Z7.80 E118.24467 F1800
G1 X114.586 Y103.908 Z7.80 E118.30990 F1800
G1 X113.951 Y105.779 Z7.80 E118.37513 F1800
G1 X113.077 Y107.550 Z7.80 E118.44036 F1800
G1 X111.980 Y109.192 Z7.80 E118.50558 F1800
G1 X110.677 Y110.677 Z7.80 E118.57081 F1800
G1 X109.192 Y111.980 Z7.80 E118.63604 F1800
G1 X107.550 Y113.077 Z7.80 E118.70127 F1800
G1 X105.779 Y113.951 Z7.80 E118.76650 F1800
G1 X103.908 Y114.586 Z7.80 E118.83173 F1800
G1 X101.971 Y114.971 Z7.80 E118.89696 F1800
G1 X100.000 Y115.100 Z7.80 E118.96218 F1800
G1 X98.029 Y114.971 Z7.80 E119.02741 F1800
G1 X96.092 Y114.586 Z7.80 E119.09264 F1800
G1 X94.221 Y113.951 Z7.80 E119.15787 F1800
G1 X92.450 Y113.077 Z7.80 E119.22310 F1800
G1 X90.808 Y111.980 Z7.80 E119.28833 F1800
G1 X89.323 Y110.677 Z7.80 E119.35355 F1800
G1 X88.020 Y109.192 Z7.80 E119.41878 F1800
G1 X86.923 Y107.550 Z7.80 E119.48401 F1800
G1 X86.049 Y105.779 Z7.80 E119.54924 F1800
G1 X85.414 Y103.908 Z7.80 E119.61447 F1800
G1 X85.029 Y101.971 Z7.80 E119.67970 F1800
G1 X84.900 Y100.000 Z7.80 E119.74492 F1800
G1 X85.029 Y98.029 Z7.80 E119.81015 F1800
G1 X85.414 Y96.092 Z7.80 E119.87538 F1800
G1 X86.049 Y94.221 Z7.80 E119.94061 F1800
G1 X86.923 Y92.450 Z7.80 E120.00584 F1800
G1 X88.020 Y90.808 Z7.80 E120.07107 F1800
G1 X89.323 Y89.323 Z7.80 E120.13630 F1800
G1 X90.808 Y88.020 Z7.80 E120.20152 F1800
G1 X92.450 Y86.923 Z7.80 E120.26675 F1800
G1 X94.221 Y86.049 Z7.80 E120.33198 F1800
G1 X96.092 Y85.414 Z7.80 E120.39721 F1800
G1 X98.029 Y85.029 Z7.80 E120.46244 F1800
G1 X100.000 Y84.900 Z7.80 E120.52767 F1800
G1 X101.971 Y85.029 Z7.80 E120.59289 F1800
G1 X103.908 Y85.414 Z7.80 E120.65812 F1800
G1 X105.779 Y86.049 Z7.80 E120.72335 F1800
G1 X107.550 Y86.923 Z7.80 E120.78858 F1800
G1 X109.192 Y88.020 Z7.80 E120.85381 F1800
G1 X110.677 Y89.323 Z7.80 E120.91904 F1800
G1 X111.980 Y90.808 Z7.80 E120.98426 F1800
G1 X113.077 Y92.450 Z7.80 E121.04949 F1800
G1 X113.951 Y94.221 Z7.80 E121.11472 F1800
G1 X114.586 Y96.092 Z7.80 E121.17995 F1800
G1 X114.971 Y98.029 Z7.80 E121.24518 F1800
G1 X115.100 Y100.000 Z7.80 E121.31041 F1800
G1 X115.298 Y102.014 Z8.00 E121.37706 F1800
G1 X114.904 Y103.994 Z8.00 E121.44371 F1800
G1 X114.256 Y105.905 Z8.00 E121.51037 F1800
G1 X113.363 Y107.715 Z8.00 E121.57702 F1800
G1 X112.242 Y109.393 Z8.00 E121.64368 F1800
G1 X110.911 Y110.911 Z8.00 E121.71033 F1800
G1 X109.393 Y112.242 Z8.00 E121.77698 F1800
G1 X107.715 Y113.363 Z8.00 E121.84364 F1800
G1 X105.905 Y114.256 Z8.00 E121.91029 F1800
G1 X103.994 Y114.904 Z8.00 E121.97695 F1800
G1 X102.014 Y115.298 Z8.00 E122.04360 F1800
G1 X100.000 Y115.430 Z8.00 E122.11025 F1800
G1 X97.986 Y115.298 Z8.00 E122.17691 F1800
G1 X96.006 Y114.904 Z8.00 E122.24356 F1800
G1 X94.095 Y114.256 Z8.00 E122.31021 F1800
G1 X92.285 Y113.363 Z8.00 E122.37687 F1800
G1 X90.607 Y112.242 Z8.00 E122.44352 F1800
G1 X89.089 Y110.911 Z8.00 E122.51018 F1800
G1 X87.758 Y109.393 Z8.00 E122.57683 F1800
G1 X86.637 Y107.715 Z8.00 E122.64348 F1800
G1 X85.744 Y105.905 Z8.00 E122.71014 F1800
G1 X85.096 Y103.994 Z8.00 E122.77679 F1800
G1 X84.702 Y102.014 Z8.00 E122.84345 F1800
G1 X84.570 Y100.000 Z8.00 E122.91010 F1800
G1 X84.702 Y97.986 Z8.00 E122.97675 F1800
G1 X85.096 Y96.006 Z8.00 E123.04341 F1800
G1 X85.744 Y94.095 Z8.00 E123.11006 F1800
G1 X86.637 Y92.285 Z8.00 E123.17671 F1800
G1 X87.758 Y90.607 Z8.00 E123.24337 F1800
G1 X89.089 Y89.089 Z8.00 E123.31002 F1800
G1 X90.607 Y87.758 Z8.00 E123.37668 F1800
G1 X92.285 Y86.637 Z8.00 E123.44333 F1800
G1 X94.095 Y85.744 Z8.00 E123.50998 F1800
G1 X96.006 Y85.096 Z8.00 E123.57664 F1800
G1 X97.986 Y84.702 Z8.00 E123.64329 F1800
G1 X100.000 Y84.570 Z8.00 E123.70995 F1800
G1 X102.014 Y84.702 Z8.00 E123.77660 F1800
G1 X103.994 Y85.096 Z8.00 E123.84325 F1800
G1 X105.905 Y85.744 Z8.00 E123.90991 F1800
G1 X107.715 Y86.637 Z8.00 E123.97656 F1800
G1 X109.393 Y87.758 Z8.00 E124.04321 F1800
G1 X110.911 Y89.089 Z8.00 E124.10987 F1800
G1 X112.242 Y90.607 Z8.00 E124.17652 F1800
G1 X113.363 Y92.285 Z8.00 E124.24318 F1800
G1 X114.256 Y94.095 Z8.00 E124.30983 F1800
G1 X114.904 Y96.006 Z8.00 E124.37648 F1800
G1 X115.298 Y97.986 Z8.00 E124.44314 F1800
G1 X115.430 Y100.000 Z8.00 E124.50979 F1800
G0 Z20 F3000
M84
